{"type":"FeatureCollection","source":"USFS EDW BasicOwnership_01 layer 0 (ownerclassification), envelope query -84.02,34.74,-83.9,34.84, fetched 2026-10-06, clipped to that box","features":[{"type":"Feature","properties":{"owner":"USDA FOREST SERVICE","forest":"Chattahoochee-Oconee National Forests","kind":"fs"},"geometry":{"type":"Polygon","coordinates":[[[-84.02,34.74],[-83.9,34.74],[-83.9,34.84],[-83.9,34.84],[-83.9,34.77683492314226],[-83.90101239802239,34.77673113091852],[-83.90136941812368,34.77668368089476],[-83.9013700880143,34.77474782048726],[-83.90137046794236,34.77347549021944],[-83.90137091788169,34.77240106999325],[-83.90137140783965,34.7716556298363],[-83.90137177780198,34.77098820969579],[-83.90137157778794,34.770740699643746],[-83.90137169776814,34.77039060957001],[-83.90141966773352,34.769531549387324],[-83.90150353767187,34.76801104906405],[-83.90173050750454,34.763884368186524],[-83.90176014748272,34.76334650807213],[-83.90177978746814,34.762987487995765],[-83.90179940745374,34.762631907920195],[-83.90294311778727,34.76264220787831],[-83.90322580786972,34.76264501786801],[-83.90525942846277,34.76266338779351],[-83.90600564868036,34.762670267766204],[-83.90664470886668,34.76267598774279],[-83.90861108944009,34.762693927670824],[-83.908963889543,34.762697357657956],[-83.90921938961749,34.762699717648616],[-83.90938164966482,34.762700947642635],[-83.90932185975524,34.7646074980463],[-83.90931059977238,34.764968608122786],[-83.90923498988701,34.767383698634106],[-83.90922232990633,34.76778994872008],[-83.90914321002663,34.77032283925629],[-83.9095162901349,34.770316559240605],[-83.90969452018655,34.77031283923296],[-83.90966400021108,34.770903209358394],[-83.9118622108493,34.770873749267466],[-83.91193317085965,34.770691229226315],[-83.91181575081559,34.77051749919429],[-83.91164353076088,34.77043598918375],[-83.91140342068239,34.770283769160926],[-83.91179392079567,34.77027741914458],[-83.9118701808178,34.77027605914135],[-83.91228404093785,34.77026890912391],[-83.91302499115285,34.77025626909268],[-83.91446441157045,34.77023167903202],[-83.91465413162547,34.77022861902408],[-83.9153363218234,34.770216828995316],[-83.91553075187977,34.77021335898709],[-83.91558094188002,34.76995943893172],[-83.91565128187722,34.769548338842476],[-83.91567406187598,34.76940951881235],[-83.91570378187684,34.76927092878203],[-83.91573684187958,34.7691499087553],[-83.91577534188482,34.76904448873161],[-83.9158225818932,34.76894895870967],[-83.91588177190548,34.76886145868903],[-83.91594777192054,34.768788408671064],[-83.91604122194292,34.76870417864973],[-83.91610175195787,34.76865604863726],[-83.91618151197815,34.768604138623296],[-83.91626552199995,34.768557818610304],[-83.91635444202349,34.76851669859821],[-83.91662444209652,34.76841823856707],[-83.91673258212546,34.768373338553495],[-83.91682896215063,34.76832258853908],[-83.91689892216824,34.76827362852605],[-83.91695118218057,34.7682229885134],[-83.91701685219512,34.76814170849374],[-83.91708991221029,34.76803440846831],[-83.91716239222438,34.767910238439406],[-83.9172703022438,34.767698468390705],[-83.9173255422543,34.76760024836786],[-83.91740251226993,34.76748037833967],[-83.9174853022876,34.767367108312655],[-83.91757176230689,34.767262808287384],[-83.91765939232727,34.76717198826487],[-83.91777856235598,34.76706648823803],[-83.91790562238747,34.76696906821269],[-83.91804186242197,34.76687898818845],[-83.91818542245915,34.76679693816564],[-83.91833930249969,34.76672233814401],[-83.91849785254222,34.76665766812432],[-83.91866350258726,34.766602298106235],[-83.91880586262674,34.76656755809345],[-83.919272472757,34.76646969805487],[-83.91951303282369,34.76641067803322],[-83.91957866284163,34.766390198026315],[-83.91962828285503,34.7663716380205],[-83.9197093228766,34.76633580800984],[-83.91976972289226,34.76630188800041],[-83.91993931293527,34.76618997797033],[-83.92019909299955,34.76598920791801],[-83.92030021302475,34.76591432789835],[-83.92038582304555,34.76584184787982],[-83.92051406307583,34.765717377848674],[-83.92060472309646,34.76561562782376],[-83.9207292231231,34.765445527783164],[-83.92097470317358,34.76507524769574],[-83.92113318320614,34.76483594763928],[-83.92114733320906,34.76481444763421],[-83.92139870325974,34.76441669754082],[-83.9216351233073,34.76404166745276],[-83.92167170331473,34.76398434743924],[-83.9218708733551,34.76367389736625],[-83.92194520336969,34.763549037337064],[-83.92200528338081,34.763436187311],[-83.92205374338907,34.76333344728753],[-83.92210744339776,34.76321049725959],[-83.9221373334018,34.76312797724108],[-83.92215669340338,34.76305608722518],[-83.92217716340261,34.762937307199415],[-83.92219360340215,34.76284530717937],[-83.92219774340052,34.76279439716853],[-83.9221979633946,34.76268878714629],[-83.92220494338898,34.76255405711764],[-83.92220565338324,34.76244892709548],[-83.92221938338105,34.76233898707179],[-83.92223768338013,34.76222949704805],[-83.92226235338191,34.76213353702694],[-83.9222953333866,34.76204655700732],[-83.92234273339548,34.761960096987295],[-83.92241080340989,34.76186481696466],[-83.92248401342682,34.76178684694539],[-83.92257479344762,34.761687696921044],[-83.92270130347947,34.761600136897684],[-83.92277515349848,34.76155542688542],[-83.92286279352145,34.761511596872836],[-83.92314012359553,34.761393986837376],[-83.92322480361788,34.761353756825685],[-83.92329814363708,34.761315466814764],[-83.92334408364891,34.761287926807235],[-83.92337644365702,34.7612651368012],[-83.92341047366527,34.761236046793755],[-83.92345168367498,34.761195556783655],[-83.9234757936804,34.76116680677666],[-83.9235017936857,34.761127026767284],[-83.92353469369155,34.76106073675206],[-83.92359206369967,34.76090968671803],[-83.92365527370781,34.7607281466774],[-83.92387913373148,34.75999491651439],[-83.92392716373487,34.75980718647304],[-83.92394646373411,34.75969519644872],[-83.9239512937309,34.75961329643129],[-83.92395000372372,34.75949288640598],[-83.92394690371924,34.75943006639288],[-83.92394035371419,34.7593738263813],[-83.92392032370195,34.75926110635834],[-83.92388032367981,34.759075776320834],[-83.92380482364055,34.75876979625938],[-83.92376014361552,34.75855771621643],[-83.92374143360333,34.75843736619183],[-83.92373623359568,34.75832951616934],[-83.92374632359243,34.75822052614599],[-83.9237912635841,34.757841926064586],[-83.92389246357541,34.75716729591862],[-83.92396271356802,34.75667554581241],[-83.92400796356542,34.75639614575183],[-83.92404853356507,34.756180975704986],[-83.92410208356854,34.75596789565809],[-83.92413954357272,34.755848145631404],[-83.92420246358277,34.755701935598175],[-83.92426249359424,34.75559597557358],[-83.9243054136035,34.755538835559854],[-83.9243522336143,34.755489395547656],[-83.92442847363246,34.75541731552954],[-83.92453721365887,34.755325045505955],[-83.92464643368567,34.75523670548315],[-83.92477232371775,34.75515598546129],[-83.92479695372386,34.75513763545645],[-83.9248251837306,34.75511186544999],[-83.92485859373834,34.75507623544118],[-83.92492540375282,34.75498816542006],[-83.9249688237613,34.754914685402944],[-83.92498316376357,34.75488199539549],[-83.9249960237652,34.75484440538711],[-83.9250057437658,34.754804805378356],[-83.92500750376577,34.75479462537615],[-83.92391755344865,34.75479652541857],[-83.92116544264788,34.7548010055255],[-83.92074273249926,34.75434856544651],[-83.91826624178083,34.75439000555064],[-83.91731800147863,34.75392673548962],[-83.91687655133795,34.7537109354612],[-83.91600484106014,34.7532851254051],[-83.91577326097566,34.75298279535039],[-83.91548255086957,34.752602835281586],[-83.91515110074864,34.752169835203176],[-83.91498300068731,34.75195030516344],[-83.91476435062,34.7518859351583],[-83.9135829202564,34.751537095130324],[-83.91288121004045,34.75133011511377],[-83.91276472000463,34.75129572511102],[-83.91271105997637,34.75107200506598],[-83.91247888985426,34.75010732487174],[-83.91230208976567,34.749450604740254],[-83.9122410197352,34.749226174695366],[-83.91221248972089,34.74911911467391],[-83.91207244965072,34.7485991245698],[-83.91271468984621,34.74875043457698],[-83.91303454993997,34.748762804567264],[-83.91328007000972,34.748731864551296],[-83.91372326013,34.748577474501694],[-83.9140196002039,34.74835949444437],[-83.91420232024949,34.74822513440904],[-83.91423007026161,34.748296334422996],[-83.9144017903367,34.748740424509876],[-83.91446837036584,34.74891277454361],[-83.91465414044703,34.749393124637585],[-83.91492740056646,34.75009956477588],[-83.91502222060711,34.75033022482079],[-83.91727480126319,34.750338244735744],[-83.91797751146784,34.750340924709214],[-83.91796897150283,34.75100283484892],[-83.91796096153845,34.751675134990805],[-83.92184787267155,34.75170719484783],[-83.92233796278269,34.75114934471149],[-83.92239702279461,34.75105580468956],[-83.92247296280986,34.75093497466118],[-83.92299802291545,34.75010018446518],[-83.92309932293381,34.74990286441976],[-83.92318603295435,34.749820564399045],[-83.92319671294597,34.74961720435583],[-83.9231859529426,34.74961230435524],[-83.92316464293594,34.749604664354415],[-83.92315957293444,34.749603754354446],[-83.92311375292107,34.74960370435622],[-83.9230445729012,34.74960789435973],[-83.9229763028818,34.749616924364254],[-83.92290843286285,34.74963029436972],[-83.92282154283882,34.74965306437785],[-83.9227210428106,34.7496706643854],[-83.92262335278278,34.74968206439157],[-83.92252547275463,34.74968783439658],[-83.92242683272595,34.74968793440038],[-83.92232749269668,34.749681924402935],[-83.92197806259253,34.74963917440742],[-83.92193269257902,34.749633124407865],[-83.92124608237378,34.74953714441413],[-83.9204860321461,34.74942294441932],[-83.92001200200434,34.749355824423446],[-83.91989915197064,34.74934076442461],[-83.91977798193402,34.749316724424254],[-83.91965934189764,34.74928472442205],[-83.91954380186179,34.74924483441812],[-83.9194323618267,34.74919800441251],[-83.91932566179257,34.74914386440525],[-83.91922470175977,34.749083374396385],[-83.9191311217288,34.749017114386064],[-83.91905464170307,34.748955934376134],[-83.91898410167887,34.74889057436508],[-83.91891738165546,34.74881997435276],[-83.91886973163818,34.748759814341966],[-83.91882882162258,34.74869426432968],[-83.9187966316093,34.74862522431642],[-83.91877294159839,34.74855398430232],[-83.91875875159016,34.7484814842876],[-83.91875349158444,34.74840768427227],[-83.91875813158103,34.74832361425438],[-83.91878468158389,34.74823688423508],[-83.91883077159265,34.748154614216034],[-83.91885902159824,34.74810857420522],[-83.91890382160763,34.74804385418983],[-83.91896887162234,34.74796941417167],[-83.9190169616337,34.747922684159974],[-83.91905584164239,34.747875514148596],[-83.91914041166226,34.74779215412775],[-83.91937976171889,34.74756141406994],[-83.91942367172847,34.747505234056426],[-83.91946605173722,34.747441134041324],[-83.91950251174403,34.74737432402582],[-83.91953299174904,34.74730522401009],[-83.9195572617521,34.7472350939944],[-83.91957548175336,34.74716310397856],[-83.9195874117527,34.747090503962816],[-83.91959242175004,34.74701768394727],[-83.91959116174554,34.74694426393187],[-83.91958429173991,34.746879793918524],[-83.91957647173619,34.7468544639135],[-83.91954694172435,34.74679689390249],[-83.91948443170018,34.74669177388278],[-83.9194031216699,34.74657450386123],[-83.91933194164365,34.74647588384319],[-83.91917134158432,34.7462531938025],[-83.91910770155964,34.74614451378208],[-83.91906002154082,34.74605761376557],[-83.91903597152994,34.745988493751966],[-83.919019651522,34.745931743740634],[-83.91900859151383,34.74584445372268],[-83.9190083815089,34.74575820370453],[-83.91901958150736,34.745673033686145],[-83.91904106150885,34.74558884366759],[-83.91907316151357,34.74550695364912],[-83.91911516152133,34.74542816363092],[-83.91917052153296,34.74534936361217],[-83.91922686154614,34.74529177359789],[-83.91926435155483,34.74525265358821],[-83.91931327156671,34.74521117357761],[-83.91935500157719,34.745181083569676],[-83.91939672158783,34.745154443562456],[-83.91948659161092,34.745100913547724],[-83.91958638163696,34.74504703353255],[-83.9197714816855,34.744952553505485],[-83.9198264817,34.74492631349783],[-83.91986353170967,34.74490656349227],[-83.91989351171733,34.74488742348707],[-83.91993389172742,34.74485850347945],[-83.91999220174237,34.74482309346973],[-83.92004195175483,34.74478686346016],[-83.92008167176404,34.74474494344986],[-83.92014273177739,34.744666673431006],[-83.92017372178326,34.744611413418184],[-83.92021413178901,34.744504883394214],[-83.92028875180434,34.74439168336744],[-83.92034801181737,34.744317133349504],[-83.92043118183635,34.744225013326854],[-83.92047065184497,34.74417444331471],[-83.92049333184893,34.74412702330386],[-83.92051122185148,34.74408043329336],[-83.92052601185269,34.74402492328112],[-83.9205355118523,34.74396977326909],[-83.92053530184832,34.74390033325454],[-83.92054120184356,34.74378533323005],[-83.92054171183764,34.743678023207444],[-83.92055111183288,34.743546113179306],[-83.92055727182941,34.74345313315946],[-83.92056088182798,34.74340863315],[-83.92045457180052,34.74347008316701],[-83.9200819516969,34.7435553331993],[-83.92008088169655,34.74355480319926],[-83.92045407180036,34.74346960316694],[-83.92047468180567,34.743457773163655],[-83.92051108180738,34.7433004031291],[-83.92057154181026,34.743040553072035],[-83.92060023180791,34.74285054303093],[-83.92061642180293,34.742679182994195],[-83.9206228217934,34.74247713295142],[-83.92061615178108,34.742293682913036],[-83.92061427177012,34.74210938287429],[-83.92078082181801,34.7420989428657],[-83.92074833179807,34.74191388282799],[-83.92067483176486,34.74170423278661],[-83.92049562169215,34.74134049271697],[-83.92030884161836,34.74099715265183],[-83.92026187159996,34.74091291263591],[-83.92020423158665,34.74097469265114],[-83.92013365155921,34.74085241262809],[-83.92006433153155,34.740719472602734],[-83.91999992150654,34.74060856258189],[-83.91992722147819,34.740481762558],[-83.91987314145739,34.7403916725411],[-83.91982093143778,34.74031426252678],[-83.9197722714196,34.740243222513726],[-83.91972514140234,34.74018009250224],[-83.91967137138323,34.74011848249129],[-83.91962866136826,34.74007345248349],[-83.91956365134534,34.74000301247115],[-83.91956047876198,34.74],[-83.9201771947315,34.74],[-83.92020234153296,34.74003323245291],[-83.92025696155335,34.74011346246774],[-83.9203150515752,34.740200482483786],[-83.92037594159862,34.74030157250272],[-83.92045098162781,34.740431612527274],[-83.9205122116516,34.74053747254719],[-83.92051894165418,34.74054889254934],[-83.92058876168207,34.74068231257476],[-83.92068690172027,34.740853352607],[-83.92068825172078,34.74085564260742],[-83.92070710172902,34.740904432616965],[-83.92066488171731,34.74091378262059],[-83.92063231170822,34.740921022623375],[-83.92068734172996,34.74102242264255],[-83.92071546174112,34.7410746826525],[-83.92074238175171,34.7411238226618],[-83.92080145177503,34.74123206268236],[-83.92098972185136,34.741613912755525],[-83.92107444188973,34.74185611280327],[-83.92111335191359,34.74207800284849],[-83.92111578192605,34.742286062892234],[-83.9211223419387,34.74247684293213],[-83.92111514194926,34.742700372979506],[-83.92110418195253,34.74281445300394],[-83.92110329195273,34.74282299300573],[-83.92109715195487,34.74289226302061],[-83.92109012195532,34.74293643303014],[-83.92108893195557,34.74294667303235],[-83.92107288195675,34.74304991305473],[-83.92110730196646,34.74304543305244],[-83.92113586197458,34.74304125305051],[-83.92110946197361,34.74316076307668],[-83.92109175197349,34.743250063096134],[-83.92107515197412,34.743346353117076],[-83.9210606719737,34.743413533131765],[-83.921055981976,34.74347776314548],[-83.9210500419794,34.74356947316502],[-83.92104119198375,34.74369152319107],[-83.9210401919893,34.743794913212895],[-83.92103458199405,34.74390820323696],[-83.92103464199919,34.74399876325602],[-83.92101738199983,34.74409887327777],[-83.92099426199803,34.74418593329699],[-83.92096517199397,34.74426379331448],[-83.92091715198565,34.74436399333746],[-83.92084131196901,34.74446069336069],[-83.9207567819497,34.744553973383645],[-83.92071747194109,34.74460369339561],[-83.92067588193251,34.744666563410426],[-83.92064059192758,34.74476022343152],[-83.92058113191621,34.74486623345616],[-83.92048893189603,34.74498379348444],[-83.92040664187698,34.74507081350596],[-83.92030584185179,34.74514400352521],[-83.92024753183684,34.74517941353493],[-83.92020901182725,34.745207653542366],[-83.92014991181208,34.74524428355235],[-83.92008789179594,34.745277613561775],[-83.92002789178005,34.74530596357005],[-83.91985473173472,34.74539511359548],[-83.91976910171238,34.74544085360843],[-83.91969541169338,34.74548472362047],[-83.91967322168776,34.745498993624324],[-83.9196573316838,34.74551041362737],[-83.9196389216793,34.745526343631454],[-83.91961577167392,34.74554957363719],[-83.91958395166652,34.7455827636454],[-83.91956090166163,34.74561549365319],[-83.9195402516578,34.7456544936622],[-83.91952395165539,34.7456951936714],[-83.91951329165467,34.74573686368061],[-83.9195082616556,34.74577950368979],[-83.91950787165787,34.745822153698754],[-83.91951355166185,34.74586322370719],[-83.91951917166472,34.74588445371145],[-83.91953011166963,34.745915253717506],[-83.91956000168146,34.74597070372801],[-83.91961117170126,34.74605750374436],[-83.91976163175677,34.74626499378223],[-83.91976155175676,34.746265423782326],[-83.91983450178374,34.74636722380097],[-83.91992561181772,34.74649836382511],[-83.91999713184526,34.74661857384765],[-83.9200006718467,34.74662494384884],[-83.92005173186702,34.74672251386742],[-83.92007812187977,34.7468116938852],[-83.92009022188958,34.74692322390819],[-83.92009215189597,34.7470264639299],[-83.9200847318997,34.74713010395197],[-83.92006825190069,34.74723244397416],[-83.92004263189894,34.74733392399654],[-83.9200081018945,34.74743325401879],[-83.9199646618874,34.74753044404088],[-83.91991303187767,34.74762469406274],[-83.9198532618654,34.74771559408416],[-83.91978108184965,34.74780789410637],[-83.91952152178824,34.74805826416911],[-83.91945444177244,34.748124314185574],[-83.9194154817638,34.74817191419711],[-83.91936252175131,34.74822335420999],[-83.91932344174245,34.74826836422096],[-83.9192987417373,34.748303954229414],[-83.91928020173361,34.74833409423649],[-83.91925683172914,34.74837541424608],[-83.91925422172883,34.74838379424794],[-83.91925350172981,34.7484048542524],[-83.91925572173218,34.7484356742588],[-83.91926152173559,34.74846598426496],[-83.91927146174022,34.74849581427087],[-83.91928505174579,34.74852470427645],[-83.91930235175239,34.74855222428158],[-83.9193242217603,34.74858017428663],[-83.91936735177543,34.74862610429464],[-83.91941592179215,34.74867083430214],[-83.91946792180963,34.748712434308935],[-83.9195340318315,34.74875969431631],[-83.91960402185427,34.74880128432241],[-83.91967710187764,34.748838424327424],[-83.91975334190164,34.748870694331245],[-83.9198328119263,34.748897664333875],[-83.91991480195138,34.748920134335435],[-83.91999782197652,34.748936664335766],[-83.92009370200513,34.7489492343347],[-83.92057286214842,34.74901685433049],[-83.9213323323759,34.74913099432527],[-83.92169543248448,34.749181944322025],[-83.92186371253473,34.749205294320454],[-83.92202065258166,34.74922713431899],[-83.92205632259231,34.74923225431867],[-83.92238249268948,34.749271934314514],[-83.92244508270794,34.749275734312896],[-83.92250832272632,34.749275724310465],[-83.92257157274456,34.74927225430728],[-83.92263377276225,34.7492648143033],[-83.92269241277869,34.74925444429889],[-83.92277444280134,34.74923293429121],[-83.9228796028308,34.74921189428273],[-83.92294711284963,34.74919719427702],[-83.92301602286913,34.749187804272395],[-83.92308563288921,34.749184514269025],[-83.92315543290967,34.7491868442668],[-83.92322477293031,34.74919517426589],[-83.9232925229508,34.74920938426631],[-83.92335818297104,34.74922899426788],[-83.92342117299079,34.74925396427074],[-83.92347946300916,34.749279344273795],[-83.92353401302675,34.74930955427809],[-83.9235854030437,34.74934462428346],[-83.92363149305933,34.7493835042899],[-83.9236729330738,34.7494258242972],[-83.92370851308672,34.74947189430553],[-83.92373786309798,34.7495203943146],[-83.92376156310782,34.74957137432444],[-83.92369462308916,34.74958613433014],[-83.9237146230987,34.74965185434322],[-83.92372819310654,34.74972126435728],[-83.92373418311224,34.74979082437169],[-83.9237329231155,34.74985538438533],[-83.92372190312658,34.75010786443893],[-83.92371945312912,34.75016583445123],[-83.92371876312954,34.750176554453496],[-83.92369913314855,34.750613624546304],[-83.92368783315261,34.750743194573985],[-83.92366952315457,34.75087295460205],[-83.92364396315422,34.75099772462926],[-83.92363543315415,34.751040454638606],[-83.9235771031483,34.75123755468234],[-83.92343220312779,34.751620444768555],[-83.92332027311117,34.75190298483236],[-83.92324511310005,34.75209331487535],[-83.92320328309592,34.752235064906806],[-83.92318368309567,34.752331934927966],[-83.9231767630965,34.752382154938786],[-83.92317500309863,34.75242942494879],[-83.92317795310215,34.75247626495851],[-83.92318675310733,34.752522814968],[-83.92319977311375,34.75256846497713],[-83.92321815312161,34.75261332498586],[-83.92324145313084,34.75265650499405],[-83.92326898314126,34.75269879500189],[-83.92330086315282,34.75273934500919],[-83.92333718316556,34.75277772501586],[-83.9233768631791,34.75281340502184],[-83.92342447319507,34.75285027502781],[-83.92379216331776,34.75312716507194],[-83.92391260335745,34.753209345084606],[-83.92380074332999,34.753299585107925],[-83.92398608339124,34.75342933512809],[-83.92457391358613,34.7538496251939],[-83.92508696375384,34.75417526524272],[-83.92508411374102,34.7539628551981],[-83.92514324376087,34.75401030520581],[-83.92523172379114,34.75408944521911],[-83.92530544381675,34.754163285231776],[-83.92535511383436,34.754218465241486],[-83.92539906385038,34.75427654525198],[-83.9254350738645,34.75434033526404],[-83.92545893387503,34.7544038352765],[-83.92548236388673,34.754490135293786],[-83.92550225389873,34.7546002553162],[-83.92551478390779,34.75469587533581],[-83.92550992391253,34.754804925359],[-83.92549843391319,34.75487497537418],[-83.9254815939121,34.75494236538903],[-83.92545934390928,34.75500750540355],[-83.92542973390447,34.75507497541893],[-83.92536260389136,34.75518844544539],[-83.92526880387103,34.75531188547502],[-83.92520829385712,34.75537684549099],[-83.92514846384279,34.75543108550473],[-83.92509261382884,34.75547233551559],[-83.92497581379908,34.75554744553588],[-83.92489087377824,34.75561611555361],[-83.92479575375513,34.75569674557426],[-83.92473741374131,34.75575241558823],[-83.92471483373605,34.755775705594],[-83.92470206373326,34.75579260559806],[-83.92466517372627,34.755858505613325],[-83.92461718371854,34.75596863563835],[-83.9245891137156,34.75606081565885],[-83.92454007371227,34.75625448570151],[-83.92450256371274,34.756455295745255],[-83.92445805371514,34.75672700580416],[-83.92438817372249,34.757216625909926],[-83.92428764373116,34.757887446055015],[-83.92424395373928,34.75825538613415],[-83.9242367637418,34.75833748615174],[-83.92423935374629,34.758403266165494],[-83.92425418375583,34.75849565618434],[-83.92429549377903,34.75869361622445],[-83.92437056381817,34.758998696285765],[-83.92441330384169,34.75919505632547],[-83.92443584385555,34.759323536351644],[-83.92444559386281,34.75940164636771],[-83.92444911386833,34.7594821763845],[-83.92445119387685,34.759621636413826],[-83.92444380388116,34.759735196438],[-83.92441909388202,34.75987857646913],[-83.9243661938785,34.76008783651524],[-83.92413749385422,34.760835696681475],[-83.92407010384552,34.76102804672452],[-83.9240048538363,34.76120120676354],[-83.92395361382715,34.76130325678698],[-83.92390296381686,34.76138164680543],[-83.92384944380494,34.76144640682113],[-83.92378049378866,34.76151314683779],[-83.92371859377361,34.76156588685126],[-83.92365452375752,34.761611096863305],[-83.92357937373822,34.76165654687574],[-83.9234824337129,34.761707256890176],[-83.92337822368532,34.76175640690455],[-83.92310711361297,34.7618715969392],[-83.92305253359864,34.76189873694703],[-83.92300916358747,34.7619247869542],[-83.92293928356986,34.76197332696708],[-83.92288062355644,34.762037596982864],[-83.92282455354346,34.76209693699754],[-83.92278700353552,34.76214983701012],[-83.92276319353105,34.76219370702029],[-83.9227455835285,34.76223859703038],[-83.92273034352753,34.76230009704392],[-83.9227150635281,34.76238875706319],[-83.92270479352979,34.76247185708107],[-83.92270399353482,34.76256404710054],[-83.9226971635404,34.762697927128954],[-83.92269720354665,34.76280873715229],[-83.92269030354923,34.762889137169495],[-83.92267116354974,34.76299682719288],[-83.92264827355058,34.763129607221714],[-83.92262158354855,34.76323054724397],[-83.92258252354334,34.76333935726842],[-83.92252141353342,34.76347841730003],[-83.92246725352416,34.76359398732644],[-83.9223980435113,34.763722787356244],[-83.92231623349532,34.76386072738844],[-83.92211389345428,34.76417605746259],[-83.92200949343321,34.764340737501286],[-83.92348661378475,34.76295543715272],[-83.92548223428555,34.76154099677812],[-83.92601085427705,34.758672316153856],[-83.92735926457756,34.75704620575957],[-83.9273607645779,34.75704419575908],[-83.92736141457806,34.75704382575899],[-83.9306134753961,34.754773985155836],[-83.93061869539648,34.754753785151365],[-83.9306294353991,34.75474531514923],[-83.93063610539753,34.754683005135824],[-83.93068634540633,34.75457998511222],[-83.93071505541043,34.754504245095184],[-83.93078861542824,34.75444096507901],[-83.93081953543512,34.754402945069764],[-83.930860865445,34.754365055060205],[-83.93090290545636,34.75435008505545],[-83.93095734547146,34.75433715505066],[-83.93100860548634,34.75433599504843],[-83.93105366549912,34.75433036504548],[-83.93109128551009,34.7543309250442],[-83.93113194552136,34.754320565040416],[-83.9311566455275,34.75430178503548],[-83.93117390553064,34.754268935027945],[-83.93119554553478,34.75423089501913],[-83.93122493554151,34.754198335011104],[-83.93128195555633,34.75416710500235],[-83.93128252555648,34.754167165002315],[-83.93132898556811,34.754133204993394],[-83.93133757557025,34.75412712499179],[-83.93138385558338,34.754121174988754],[-83.9314715556083,34.754110554983136],[-83.93153350562754,34.754131534985135],[-83.93166677566524,34.754112304976],[-83.9317497156884,34.75409561496922],[-83.9318580457204,34.75410333496672],[-83.93192896574251,34.75412948496949],[-83.93201202576608,34.75411884496403],[-83.93206599578174,34.754118804961976],[-83.9320677057823,34.754118964961954],[-83.93207705578497,34.754118564961466],[-83.93209732579089,34.754118764960715],[-83.93217541581366,34.75412015495802],[-83.9322276958285,34.754113054954516],[-83.93228031584157,34.75407365494421],[-83.93234917586,34.7540444149354],[-83.93248506589777,34.754013354923586],[-83.93255931592225,34.75406396493139],[-83.93276915597954,34.75399769490937],[-83.93299308604261,34.75396078489298],[-83.93303186605355,34.75395455489018],[-83.93304992612015,34.75503893511777],[-83.93305967615716,34.75564262524445],[-83.92927780513178,34.75697349567035],[-83.9292136452794,34.75991223629146],[-83.93421055687153,34.762348836611764],[-83.9301250657812,34.7640928071363],[-83.92677308496943,34.76698691787465],[-83.92669594494947,34.767030457886776],[-83.92661615492878,34.76707589789944],[-83.92655198491195,34.76710816790871],[-83.92650820490044,34.76712986791497],[-83.92650649489994,34.767129707914975],[-83.92647666489209,34.767144547919266],[-83.92641638487584,34.767167697926446],[-83.92636791486258,34.76718291793157],[-83.92631828484825,34.7671846679338],[-83.92627370483466,34.76717395793328],[-83.92622745482004,34.76715274793061],[-83.92618766480683,34.767124377926116],[-83.92614271479134,34.767082167919035],[-83.92610515477749,34.76703072790959],[-83.92605792476024,34.766968027898216],[-83.92600914474335,34.76692113789027],[-83.92594142472014,34.7668595078799],[-83.92583573468578,34.76679598787059],[-83.92576476466311,34.76675991786574],[-83.92576362466279,34.76675980786573],[-83.92567503463482,34.76672162786114],[-83.92560443461325,34.76670369786007],[-83.92551640458665,34.766685837859754],[-83.92544919456648,34.766675127860054],[-83.92539174454939,34.76666836786084],[-83.9253404845345,34.766669527863066],[-83.92525176450924,34.76667919786851],[-83.92519097449205,34.766688507872814],[-83.92512366447325,34.76670192787825],[-83.92508076446167,34.7667185478834],[-83.92504930445311,34.766729347886866],[-83.92498360443518,34.76675025789384],[-83.92491158441595,34.766780917903056],[-83.92482471439256,34.76681360791324],[-83.92470089435868,34.76685184792611],[-83.9246972543577,34.766852787926446],[-83.92468381435397,34.766856687927756],[-83.9245008343086,34.766995787964085],[-83.92448100430452,34.767026667971365],[-83.92438502428492,34.76717274800578],[-83.92438344428457,34.767175188006355],[-83.92436815428131,34.767196578011486],[-83.9242822642632,34.767317758040306],[-83.92426253426676,34.76748273807577],[-83.92425794427668,34.76768106811771],[-83.92425459428347,34.767818288146735],[-83.92424091429504,34.76809292820505],[-83.92423018429908,34.76821909823201],[-83.92415023428359,34.768356358263965],[-83.92393597423707,34.76863648833121],[-83.92378256420297,34.76882280837634],[-83.9236486041683,34.76889973839767],[-83.9235487441408,34.76892688840724],[-83.92346209411524,34.76892122840938],[-83.92325809405216,34.768855678403455],[-83.92310964400626,34.76880791839916],[-83.92270399388286,34.76871369839497],[-83.92240394379608,34.768723948408685],[-83.9215054735731,34.76940459858658],[-83.92111234347551,34.769702188664375],[-83.92040585330142,34.77025882880871],[-83.91786424267464,34.772255889327006],[-83.91689960243292,34.7729461695095],[-83.91689910243275,34.772945689509434],[-83.91638435226484,34.77262590946192],[-83.91512291188232,34.77235532945367],[-83.91494947183102,34.77234139945738],[-83.91381125152586,34.772802999598404],[-83.9139632115804,34.77298518963086],[-83.91377941155483,34.77347860974186],[-83.91294468133054,34.77380913984359],[-83.91254256123328,34.77415845993262],[-83.91216394111609,34.7740352999213],[-83.9112909509155,34.77498090015393],[-83.91110919088968,34.775458980261554],[-83.9109037408605,34.77600035038343],[-83.9108739708555,34.77606521039822],[-83.9106872308242,34.77647125049086],[-83.91042385077353,34.77693121059781],[-83.91043189081226,34.77757397073279],[-83.91040641087093,34.77874040097925],[-83.91038771091085,34.77954143114856],[-83.91039348092109,34.77969289118024],[-83.91062529100354,34.77995727122692],[-83.91061322101426,34.780208781280315],[-83.91093288111725,34.78038452130498],[-83.91079214110837,34.78095102142964],[-83.91065509107347,34.781038861453396],[-83.91035226098315,34.7810009614571],[-83.91034842100085,34.78133258152703],[-83.91031801106938,34.78269902181573],[-83.9103137610791,34.78289177185646],[-83.91030613109743,34.78325537193328],[-83.91028944113502,34.78400441209156],[-83.91007129107126,34.78400045209913],[-83.90897762075178,34.78398078213718],[-83.90730157026394,34.78398237220209],[-83.90699264017408,34.783983122214195],[-83.90696193016508,34.78398278221531],[-83.90698198017309,34.78402134222267],[-83.90709490021982,34.78426492226953],[-83.90712602023368,34.784350232286315],[-83.90714845024485,34.7844321323027],[-83.9071707302598,34.78458214233336],[-83.90717436026944,34.78473253236486],[-83.90715744027196,34.78486414239325],[-83.90710944026935,34.785064792437346],[-83.90707733026711,34.78519022246493],[-83.90700028025965,34.78545493252362],[-83.90697470025793,34.78555597254586],[-83.90692763026121,34.785855452610654],[-83.90690075026028,34.78597749263739],[-83.90684181025374,34.78616417267896],[-83.906771370243,34.786336822718035],[-83.90670088022996,34.78646936274863],[-83.90654274019828,34.78672290280808],[-83.90640673017133,34.786945782860194],[-83.90637764016591,34.786999922872745],[-83.90635752016266,34.78704586288319],[-83.90631072015675,34.787182392913685],[-83.9062984301561,34.787233392924946],[-83.9062915101567,34.78728016293505],[-83.90628956015836,34.78731834294313],[-83.90629151016148,34.78736423295274],[-83.90631287017783,34.78754304298949],[-83.90633655019259,34.78768153301773],[-83.90634372019902,34.7877576730335],[-83.90633989020216,34.7878336230496],[-83.90643331022936,34.787833893046056],[-83.9067438203198,34.78783416303411],[-83.90846587082122,34.78783566296803],[-83.90894122095962,34.78783609294978],[-83.90901249098046,34.78783685294723],[-83.90958436114725,34.78784303292648],[-83.90989094123664,34.787845922915245],[-83.91084116151384,34.787856232880735],[-83.9130181121489,34.78787900280163],[-83.91685513326816,34.787919202662074],[-83.9169009132815,34.787919682660394],[-83.9176304634943,34.787927042633775],[-83.91763103349447,34.7879270926338],[-83.9177663635466,34.78815209267593],[-83.91804509365402,34.788615802762706],[-83.91815702374765,34.78969309298503],[-83.91805835375936,34.79040629313891],[-83.91802880377195,34.790779433218525],[-83.91802872377194,34.79077985321866],[-83.91843321388916,34.790770493201045],[-83.91902590406094,34.79075705317538],[-83.91927882413422,34.79075137316441],[-83.91940003416933,34.79074868315918],[-83.91940060416951,34.79074873315916],[-83.91943688420841,34.79124842326287],[-83.92010199440226,34.791252653238104],[-83.927461386552,34.79138534298207],[-83.9275519465784,34.79138533297857],[-83.92781441665478,34.791384852968285],[-83.93454025861206,34.7913771227071],[-83.93477943868166,34.79137700269786],[-83.93462572895257,34.796942023874365],[-83.93457393902013,34.79839817418261],[-83.93452819934231,34.80431006542775],[-83.93698699005897,34.804327255336396],[-83.93705476968556,34.797400033876905],[-83.93705861966289,34.79698005378843],[-83.94182231105383,34.79705878362103],[-83.94708821259098,34.79713715343422],[-83.94708570261307,34.79753957351895],[-83.94703862298188,34.80427812493778],[-83.94703786298668,34.80436685495648],[-83.95254137459001,34.80439335474944],[-83.954161665062,34.80440092468847],[-83.96138053716486,34.80443541441675],[-83.96137945717389,34.80460042445145],[-83.96137498760534,34.812216606052814],[-83.96137281761308,34.81236426608399],[-83.9612649980186,34.820051127703906],[-83.96962838045344,34.82006456738324],[-83.96967105027497,34.81670790667616],[-83.97442367166046,34.81674974650115],[-83.97457906170573,34.81675109649542],[-83.97462039170136,34.81646316643328],[-83.97467711171316,34.81637973641353],[-83.97483716174632,34.816144436357924],[-83.97508108179404,34.815735156262484],[-83.97530500184082,34.8154119161859],[-83.97550475189182,34.815286846151835],[-83.97561021191629,34.815176566124585],[-83.97543758182285,34.81441703597165],[-83.97530707170698,34.81304719568878],[-83.97526346166589,34.81254732558537],[-83.97524489164702,34.81231062553634],[-83.97896079272991,34.81233865539856],[-83.9807761132581,34.812337175328075],[-83.98073821324883,34.81236850533607],[-83.98052363320207,34.81264434540238],[-83.98048028319536,34.81274801542582],[-83.98042850318632,34.81285347544997],[-83.98042600319545,34.81302696548655],[-83.9803962131966,34.813200455524175],[-83.98037179319914,34.813369715560704],[-83.9803396632006,34.81356022560196],[-83.98025002318421,34.81373063564125],[-83.98016367316484,34.81383110566571],[-83.98003123313225,34.81393625569296],[-83.97991180309958,34.81397236570516],[-83.97970921304636,34.814073465734246],[-83.97954719300402,34.81415813575829],[-83.9791302329052,34.81455406585766],[-83.97880910282885,34.81485517593332],[-83.97853623276711,34.815166016009215],[-83.97833578272308,34.815416906069686],[-83.97816052268091,34.81557188610904],[-83.97917854302364,34.8163894262415],[-83.98145535362016,34.815229335909635],[-83.98217992378511,34.8144215157118],[-83.98233798381432,34.8141265256437],[-83.98256619384917,34.81357176551829],[-83.98277253389143,34.81325935544465],[-83.98336853401288,34.81234453522933],[-83.98583165472996,34.812350815135375],[-83.9858304247298,34.812354575136226],[-83.98582419472949,34.81238071514195],[-83.98579610472927,34.8125207451725],[-83.98579733474078,34.8127165752136],[-83.98577282474754,34.81296082526583],[-83.9857279847416,34.81308677529411],[-83.98565429472981,34.81325567533239],[-83.985597314719,34.81335762535607],[-83.98555831471248,34.81344274537546],[-83.98558210472575,34.813554485397994],[-83.98560099473715,34.813657575418965],[-83.9856261547505,34.81376470544052],[-83.98567720477483,34.8139307554734],[-83.98570795478823,34.814008675488594],[-83.98570395479224,34.81409968550789],[-83.98565741478544,34.81421856553469],[-83.98562005477967,34.814307715554875],[-83.98556619477277,34.81446255558948],[-83.98552141476823,34.81461177562256],[-83.9854951047685,34.814751545652975],[-83.98545293476293,34.81486868567919],[-83.985371194747,34.81500665571134],[-83.9853630847527,34.81514857574151],[-83.98541297477202,34.81523347575741],[-83.98541890477624,34.81527671576631],[-83.98542131478112,34.81535065578174],[-83.98541997478543,34.81543286579902],[-83.98539806478247,34.815492865812494],[-83.98533940476922,34.81556059582901],[-83.98525423474844,34.81563056584698],[-83.98518796473246,34.815688525861766],[-83.98512633471782,34.81574649587635],[-83.9850389846969,34.81582574589638],[-83.98500236468954,34.81588349590993],[-83.98497301468318,34.815922525919234],[-83.9848613546608,34.816099485960734],[-83.98488305467127,34.81617266597528],[-83.98485734466982,34.816278435998505],[-83.98530394479721,34.81623403597193],[-83.98581914494707,34.81623319595178],[-83.98636582510761,34.816258605936014],[-83.98709627531514,34.816170785889256],[-83.98797020557039,34.81618748585897],[-83.9886491657791,34.81638274587372],[-83.98923089595182,34.81644422586413],[-83.98976404611156,34.81652481586048],[-83.98955315603828,34.81631563582468],[-83.98967388604783,34.81586580572551],[-83.98965695601058,34.81529777560677],[-83.98953930594375,34.81472452549085],[-83.98924131583784,34.814386835431364],[-83.98933414582444,34.813676585278536],[-83.98904937572223,34.81333626521804],[-83.98872857561398,34.81307400517534],[-83.9885787555552,34.81280679512497],[-83.98830028545079,34.81239593504939],[-83.9882824354442,34.81237140504492],[-83.9880249653692,34.81236946505448],[-83.98794147490936,34.804707733447316],[-83.99653805741393,34.80476752312744],[-83.99656766734729,34.80344345284805],[-83.996498587322,34.803352002831474],[-83.99652093731666,34.803143752786816],[-83.9965820173144,34.802790862710296],[-83.99662187722349,34.80098710232958],[-83.9966219472235,34.80098668232949],[-83.99994053819061,34.80101539220723],[-83.99998140819686,34.80091580218467],[-84.00070284832647,34.79950407186007],[-84.00086367835075,34.79910759177051],[-84.00102897837809,34.798742561687355],[-84.0011578084025,34.798512471634005],[-84.0012498684199,34.79834787159586],[-84.00125646842119,34.79833643159321],[-84.00091002830459,34.79805797154807],[-84.00088744829549,34.79801359153965],[-84.00085790828359,34.79795562152859],[-84.00085854828382,34.7979552515285],[-84.00486751945236,34.797995641381966],[-84.00507793956064,34.798824221547996],[-84.00532089969172,34.799886501761875],[-84.0049647496768,34.80144699210362],[-84.00496360967647,34.801446882103654],[-84.00469398978152,34.804674312792415],[-84.0140966425228,34.804778872450676],[-84.01401204292193,34.812228324019394],[-84.01966244456837,34.81227607381068],[-84.019646934437,34.810046033342736],[-84.01962105442708,34.81000393333486],[-84.01945913436587,34.80975588328902],[-84.01929676431395,34.80967332327796],[-84.01902186422808,34.80956980326687],[-84.01869625413332,34.80956925327937],[-84.01825869400305,34.80951719328534],[-84.0180088239227,34.809382843266775],[-84.01790924388614,34.80924887324251],[-84.01782200385081,34.80907338320898],[-84.01779685383468,34.80891841317737],[-84.01776009381459,34.80875330314414],[-84.01764744376831,34.80851593309857],[-84.0175101937213,34.8083917630778],[-84.01732299366039,34.808277973061145],[-84.01708531358246,34.80812321303784],[-84.0167233334583,34.80779248298232],[-84.0165613333977,34.80755520293875],[-84.0165369433765,34.80730762288765],[-84.01669950340974,34.807060012829325],[-84.01683798342712,34.806657962739486],[-84.01706395346005,34.80608054260944],[-84.01729006350467,34.80570917252261],[-84.0175910835688,34.80529702242436],[-84.01764163356769,34.8050185823639],[-84.01767292356502,34.80481204231927],[-84.01822939372815,34.80483394230237],[-84.02,34.80484597870109]],[[-83.92008088169655,34.74355480319926],[-83.9197616815991,34.74347481319468],[-83.9197617515991,34.74347439319461],[-83.92008088169655,34.74355480319926]],[[-83.92508411374102,34.7539628551981],[-83.92505512363735,34.752279394844784],[-83.92505576363752,34.752279024844675],[-83.92508411374102,34.7539628551981]],[[-83.99718885478927,34.75517671267368],[-83.99718071478695,34.755176812674044],[-83.99710269476417,34.75517503267669],[-83.99718885478927,34.75517671267368]],[[-84.00495661906103,34.790650609834465],[-84.01419815175632,34.790773319503],[-84.00495653906103,34.79065103983454],[-84.00495661906103,34.790650609834465]],[[-83.97466406770621,34.74580321156983],[-83.97459027768684,34.74584105158067],[-83.97421399758825,34.74603260163544],[-83.97405248754593,34.746115161659056],[-83.97385948747556,34.74586404161367],[-83.97343815732208,34.745317501514855],[-83.97339160730515,34.74525747150402],[-83.97339961728571,34.74487278142271],[-83.97350094726286,34.74394765122408],[-83.97338513722872,34.74393969122686],[-83.97385356731077,34.74298123100706],[-83.97393412732482,34.74281598096917],[-83.97404585736047,34.742871410976576],[-83.97433028745121,34.74301220099522],[-83.97407011742993,34.74397401120769],[-83.97393034742443,34.74459585134398],[-83.97406160749124,34.74510196144545],[-83.97466406770621,34.74580321156983]],[[-83.97348823770078,34.75175239286726],[-83.97460434803833,34.75197933287199],[-83.97578380839505,34.752219172877],[-83.97550135832013,34.75234718291486],[-83.97522758824944,34.75250576295879],[-83.97502256819851,34.75265922299896],[-83.97500702819602,34.752695693007254],[-83.97480484816411,34.75317062311499],[-83.97473491815306,34.753334723152214],[-83.97469925816634,34.75375214324146],[-83.9746165581416,34.75374042324216],[-83.97405198797279,34.75365975324695],[-83.9739409779396,34.75364405324793],[-83.97382466789415,34.75343944320939],[-83.97328317768275,34.752487463029894],[-83.97212924731376,34.75189950295063],[-83.97282658747301,34.751128752761566],[-83.97348823770078,34.75175239286726]],[[-83.9881652416188,34.74],[-83.98816213131144,34.740123719854026],[-83.98815734132044,34.740307369892854],[-83.98818408137186,34.74107863005419],[-83.98796543130784,34.74107173006115],[-83.98564527062992,34.741017560139206],[-83.98544881057249,34.74101318014582],[-83.9844533602816,34.740990040179334],[-83.98366651005168,34.740971560205786],[-83.98348917999986,34.74096726021172],[-83.97972348889947,34.74087953033845],[-83.97967062888124,34.74082925032986],[-83.9796730888691,34.740601830281896],[-83.97968028577753,34.74]]]}},{"type":"Feature","properties":{"owner":"USDA FOREST SERVICE","forest":"Chattahoochee-Oconee National Forests","kind":"fs"},"geometry":{"type":"Polygon","coordinates":[[[-83.96957581126503,34.834597510439195],[-83.9696672608741,34.82726118889412],[-83.96386226918528,34.82727255912114],[-83.9696731908758,34.82726045889379],[-83.969673310733,34.82474946836609],[-83.96473156925559,34.824061498412675],[-83.9611653982136,34.82398953853547],[-83.9612649980186,34.820051127703906],[-83.95223846539007,34.82002681804779],[-83.95217536610694,34.83295377076708],[-83.9545726968046,34.832952190674],[-83.9545922469022,34.83456626101244],[-83.96919027115281,34.83459678045395],[-83.96943996122546,34.834597150444374],[-83.96957581126503,34.834597510439195]]]}},{"type":"Feature","properties":{"owner":"USDA FOREST SERVICE","forest":"Chattahoochee-Oconee National Forests","kind":"fs"},"geometry":{"type":"Polygon","coordinates":[[[-83.96957581126503,34.834597510439195],[-83.969577601269,34.83465803045183],[-83.96958397128144,34.83484399049066],[-83.96971704155943,34.83904652136842],[-83.96865225123167,34.83873275134373],[-83.96804454103986,34.838470021312084],[-83.96724125078947,34.83817928128205],[-83.96679676066078,34.838190201301586],[-83.9660211505024,34.839373291580145],[-83.96589882048978,34.83977725166972],[-83.9657900839759,34.84],[-83.97854423343593,34.84],[-83.97867396390552,34.83446813005982],[-83.96957581126503,34.834597510439195]]]}},{"type":"Feature","properties":{"owner":"USDA FOREST SERVICE","forest":"Chattahoochee-Oconee National Forests","kind":"fs"},"geometry":{"type":"Polygon","coordinates":[[[-83.95223846539007,34.82002681804779],[-83.95222465496515,34.812620616491444],[-83.94808982375878,34.81256972664054],[-83.94808514396304,34.81618877740156],[-83.94411692280642,34.816160487548984],[-83.94386516273302,34.81615900755842],[-83.94364940267012,34.81615749756645],[-83.94363388288036,34.819935878361306],[-83.95223846539007,34.82002681804779]]]}},{"type":"Feature","properties":{"owner":"USDA FOREST SERVICE","forest":"Chattahoochee-Oconee National Forests","kind":"fs"},"geometry":{"type":"Polygon","coordinates":[[[-84.02,34.827436796944404],[-84.01715381470387,34.827474537100734],[-84.01713970469753,34.82743483709294],[-84.01711993468959,34.82739762708586],[-84.01710142468288,34.8273734670815],[-84.01704834466423,34.827317167071755],[-84.0170043446481,34.82725870706118],[-84.01695448463043,34.8272039970516],[-84.01694465462683,34.82719014704911],[-84.01693704462386,34.8271769270466],[-84.01692889462015,34.827153307041996],[-84.01692332461707,34.82712821703691],[-84.0169216746152,34.82710391703187],[-84.01692330461441,34.82708079702698],[-84.01692871461492,34.82706277702295],[-84.01693956461702,34.8270435370185],[-84.01698738462751,34.826984687004284],[-84.0170019446306,34.8269640769994],[-84.01701904463373,34.826932066991986],[-84.01705533463996,34.826855746974545],[-84.0170759446439,34.826820186966316],[-84.01711294465206,34.826773676955106],[-84.01712514465446,34.82675327695038],[-84.01713509465559,34.82672231694348],[-84.01713941465464,34.826683496935125],[-84.0171391246531,34.82665804692982],[-84.01713406465,34.82662997692409],[-84.01712528464574,34.82659983691811],[-84.01710834463793,34.82654953690821],[-84.01709286463144,34.826514446901456],[-84.0170520646152,34.826437326886825],[-84.01703794460903,34.82640107687976],[-84.01702116460082,34.82634302686821],[-84.01701914459916,34.82632430686434],[-84.01702019459852,34.82630801686086],[-84.01702458459913,34.82629593685816],[-84.01703312460091,34.82628337685518],[-84.0170819946122,34.82623195684253],[-84.01708867461348,34.82622008683974],[-84.01709113461352,34.826209106837375],[-84.01709031461263,34.82619695683483],[-84.0170857046105,34.82618316683213],[-84.01705996460034,34.82613676682335],[-84.01705258459717,34.826118826819915],[-84.01704651459376,34.82608980681404],[-84.01704020458804,34.82602153679992],[-84.01703150458381,34.82599097679384],[-84.01702020457921,34.82596878678965],[-84.01700382457317,34.82594569678543],[-84.01692968454671,34.825859816770226],[-84.01685497451986,34.82577043675437],[-84.01683767451347,34.82574596674988],[-84.01682359450803,34.82572307674566],[-84.01680633450084,34.825684816738274],[-84.01678860449286,34.82563572672864],[-84.01678422449052,34.82561720672492],[-84.0167760944851,34.825562996713856],[-84.01677063448263,34.82554738671073],[-84.0167635244798,34.825534646708356],[-84.01674484447345,34.82551823670563],[-84.01669519445737,34.825489406701514],[-84.01667615445103,34.82547511669926],[-84.01665043444207,34.825448976694766],[-84.01663554443665,34.825430766691504],[-84.01662630443299,34.82541351668826],[-84.01662263443106,34.82539764668503],[-84.01662459443095,34.82538619668256],[-84.01663411443188,34.82535433667554],[-84.01663663443082,34.825322676668726],[-84.01663356442846,34.82529652666338],[-84.01662662442507,34.825272596658614],[-84.01661674442106,34.82525226665473],[-84.01660450441655,34.82523558665172],[-84.01659089441192,34.825223526649694],[-84.01657040440537,34.82521426664854],[-84.0165219243906,34.825202366647915],[-84.01642733436132,34.825171466645116],[-84.01649800437752,34.825094506626215],[-84.01642919435584,34.82506559662278],[-84.01639947434859,34.825089956629036],[-84.01633093433058,34.825124006638866],[-84.01624613430845,34.82516816665143],[-84.0161842442921,34.82519723665992],[-84.01611856427472,34.825228116668946],[-84.01602222424863,34.82526169667971],[-84.01594011422638,34.82529015668889],[-84.01584357419988,34.82531812669852],[-84.01573194416937,34.82535284671012],[-84.01554431411749,34.82540066672743],[-84.01525702403771,34.825467536752626],[-84.01513018400247,34.82549608676349],[-84.01496111395502,34.82552711677656],[-84.0149293539463,34.825536196779744],[-84.01488723393491,34.825551616784594],[-84.0148458839239,34.82556926678989],[-84.01480595391338,34.82558877679556],[-84.0147680939036,34.82560977680145],[-84.01473158389427,34.82563305680773],[-84.01469650388552,34.82565819681437],[-84.01466406387762,34.825684876821256],[-84.01463376387034,34.82571261682824],[-84.014578563858,34.82577724684395],[-84.01455221385267,34.825819156853775],[-84.01448470383873,34.82591839687724],[-84.01440744382242,34.826027056903044],[-84.01434464380823,34.82609871692051],[-84.01425433378479,34.82614795693437],[-84.01419931377022,34.826174236942],[-84.0141468037562,34.82619600694865],[-84.01409688374265,34.82621284695412],[-84.01404889372941,34.826225126958526],[-84.0140142237196,34.82623090696107],[-84.01391331369064,34.82623690696629],[-84.013838493669,34.826239756969755],[-84.01372565363646,34.82624419697505],[-84.01372519363993,34.82630795698849],[-84.01371908367783,34.827004807135076],[-84.01377276386566,34.83002805776805],[-84.01404653394371,34.82999957775148],[-84.01442523405156,34.8299585777282],[-84.01453480408287,34.82994951772202],[-84.01463329411123,34.82994415771711],[-84.01472948413912,34.82994201771294],[-84.01482931416814,34.82994238770917],[-84.01493456419895,34.829944987705574],[-84.01504573423158,34.829950307702404],[-84.01515940426509,34.82995800769964],[-84.01528421430201,34.82996848769697],[-84.01562005440158,34.83000146769089],[-84.01576242444392,34.83001791768888],[-84.01592135449138,34.83003936768719],[-84.01650871466741,34.830129687683446],[-84.016814354759,34.83017619768136],[-84.01696536480411,34.83019646767977],[-84.01714216485678,34.830218747677584],[-84.01723167488338,34.830228487676166],[-84.01731883490913,34.83023498767414],[-84.01739679493197,34.83023759767169],[-84.01745610494918,34.830237157669295],[-84.01751749496688,34.830234757666396],[-84.01758167498531,34.830229597662814],[-84.01765022500484,34.83022270765877],[-84.0177959150461,34.83020282764892],[-84.01800817510583,34.83016723763325],[-84.01814930514531,34.830140027622015],[-84.01830461518851,34.83010467760861],[-84.01846858523379,34.830062817593465],[-84.01875484531263,34.82998506756603],[-84.0189976953796,34.829920037543],[-84.01914358541967,34.829878627528586],[-84.01927775545641,34.82983782751487],[-84.01939734548888,34.829797377501706],[-84.01964968555734,34.82971082747377],[-84.01977780559179,34.8296612674584],[-84.01983932560819,34.82963431745036],[-84.01989456562268,34.8296067674424],[-84.01994473563566,34.82957830743453],[-84.01998983564708,34.829548937426566],[-84.02,34.829541486146745]]]}},{"type":"Feature","properties":{"owner":"USDA FOREST SERVICE","forest":"Chattahoochee-Oconee National Forests","kind":"fs"},"geometry":{"type":"Polygon","coordinates":[[[-83.98996460628727,34.81858791628626],[-83.9899641762871,34.81858701628605],[-83.98979373623949,34.81862262630013],[-83.98977564623449,34.81862651630166],[-83.9895812361871,34.818788326343196],[-83.98944168615559,34.81894841638225],[-83.98933987613509,34.81910862641984],[-83.9892723261263,34.81929923646252],[-83.98924407612107,34.819352176474716],[-83.98915811610533,34.819514756512206],[-83.98901190607602,34.81974749656676],[-83.98880197602813,34.81997938662361],[-83.98976631631649,34.820115836615],[-83.99126084675855,34.82024205658367],[-83.99234153704755,34.81979504644796],[-83.99609249813929,34.81979998630384],[-83.99609341813827,34.81977766629909],[-83.99609553813413,34.819694236281514],[-83.99610853813265,34.81960149626151],[-83.99612505813175,34.81950175623991],[-83.9961217681242,34.81938548621557],[-83.99611273811145,34.81920789617864],[-83.99612349811257,34.81917227617073],[-83.99614561811684,34.819134706161975],[-83.9961437181131,34.81907805615016],[-83.99614602810661,34.81895283612372],[-83.99615148809964,34.818802476091975],[-83.9961605680995,34.81875290608115],[-83.99616814809899,34.81870533607085],[-83.99617051809679,34.81865426606006],[-83.9953321978495,34.818595726080204],[-83.98996460628727,34.81858791628626]]]}},{"type":"Feature","properties":{"owner":"USDA FOREST SERVICE","forest":"Chattahoochee-Oconee National Forests","kind":"fs"},"geometry":{"type":"Polygon","coordinates":[[[-83.99925905839758,34.808144813732014],[-83.9989059782955,34.80815542374792],[-83.99869057823321,34.80816222375768],[-83.99810652805907,34.808087633764586],[-83.9976154179119,34.808012763767856],[-83.99667662763414,34.80793136378706],[-83.99585027739454,34.80794593382211],[-83.99509074717535,34.80797716385805],[-83.99504822716455,34.80800504386554],[-83.99500260715334,34.80804082387485],[-83.9949559071421,34.80808296388552],[-83.99491505713259,34.80812480389588],[-83.9948820771253,34.80816479390557],[-83.99484921711833,34.80821082391646],[-83.99481934711243,34.80825973392795],[-83.9947936971077,34.808307743939025],[-83.99475578710154,34.808393393958454],[-83.99471927709631,34.808487793979744],[-83.99470600709472,34.80852792398867],[-83.99469436709381,34.80857208399844],[-83.99468450709365,34.808619434008754],[-83.99467627709419,34.80867081401987],[-83.9946720070953,34.808712664028825],[-83.9946720870978,34.808756204037955],[-83.99467552710132,34.808800504047156],[-83.99468367710617,34.80884437405607],[-83.99469418711175,34.808888044064794],[-83.99470515711688,34.80892227407161],[-83.9947455271337,34.80901187408886],[-83.99493965721322,34.80941690416648],[-83.99497855722915,34.809498174182075],[-83.99507243726694,34.80968206421705],[-83.99511282728336,34.809764774232896],[-83.99515120729956,34.809852464249815],[-83.9951800373124,34.80993148426529],[-83.99519966732103,34.80998291427541],[-83.99523188733438,34.81005234428875],[-83.99539258739908,34.810367994348866],[-83.99545575742503,34.81050070437432],[-83.99549294744047,34.81058181438992],[-83.99550924744769,34.81062559439847],[-83.99551919745285,34.81066576440653],[-83.99553282746096,34.81073861442129],[-83.99555088747178,34.81083644444117],[-83.9964138077201,34.81078825439768],[-83.99641388771605,34.810716704382614],[-83.99643405770024,34.810334954301624],[-83.99663459773825,34.80997801421885],[-83.99685546778957,34.80974973416232],[-83.99716368787192,34.809621514123435],[-83.99798759810854,34.809567044080126],[-83.99859242826652,34.80924960399],[-83.99905657837562,34.80879428387639],[-83.99922900841926,34.808679093845484],[-83.99925368840167,34.80824388375308],[-83.99925905839758,34.808144813732014]]]}},{"type":"Feature","properties":{"owner":"USDA FOREST SERVICE","forest":"Chattahoochee-Oconee National Forests","kind":"fs"},"geometry":{"type":"Polygon","coordinates":[[[-83.9065125501126,34.78536492252347],[-83.90659040012017,34.7850989924645],[-83.90662040012234,34.78498242243883],[-83.90666310012456,34.78480238239931],[-83.90667476012298,34.78471468238041],[-83.90667221011637,34.784611822358826],[-83.90665568010537,34.78450246233647],[-83.90664296009902,34.784455112326995],[-83.90662200008967,34.78439836231586],[-83.90651927004721,34.78417645227313],[-83.90641933000731,34.78398541223679],[-83.90641905000709,34.783983662236395],[-83.90507856961695,34.78398485228837],[-83.90474878952095,34.78398533230118],[-83.9047171595478,34.784622152436405],[-83.90484248959459,34.78480397246981],[-83.90499437964729,34.78495296249532],[-83.90485644964376,34.7856003426369],[-83.90420464954407,34.78718954299639],[-83.90294106921253,34.78783054318003],[-83.90362765941244,34.787831303153716],[-83.90426490959803,34.78783209312928],[-83.90584012005668,34.78783343306887],[-83.9058437800539,34.787765233054344],[-83.90584002005058,34.787726493046364],[-83.90581675003621,34.787592353019015],[-83.90579227001771,34.78739125297763],[-83.90578959001263,34.787315982961914],[-83.90579361000982,34.78724565294693],[-83.90580523000885,34.78716829293023],[-83.90582451000985,34.78708692291239],[-83.90588202001703,34.78691864287474],[-83.9059142500223,34.78684626285826],[-83.90595407002964,34.78677029284072],[-83.90609728005803,34.78653603278595],[-83.90624973008855,34.786291862728675],[-83.90630553009892,34.78618723270448],[-83.90636299010764,34.78604612267262],[-83.90641280011323,34.78588875263757],[-83.9064335801138,34.78579200261638],[-83.90648203011068,34.78548791255056],[-83.9065125501126,34.78536492252347]]]}}]}