{"type":"FeatureCollection","features":[{"type":"Feature","properties":{"name":"Raven Cliffs Wilderness","kind":"wilderness","no_panning":true,"source":"Nominatim/OSM (relation 14582139)","display_name":"Raven Cliffs Wilderness, White County, Georgia, United States"},"geometry":{"type":"Polygon","coordinates":[[[-83.9176025,34.7336289],[-83.9172835,34.7332443],[-83.915986,34.7323703],[-83.9154756,34.7320033],[-83.915114,34.7312691],[-83.9147099,34.7307272],[-83.9142419,34.730063],[-83.9144546,34.7289267],[-83.9140505,34.72821],[-83.9130296,34.7267766],[-83.9126255,34.7259375],[-83.9133061,34.7236475],[-83.9131997,34.7225111],[-83.9126042,34.7217244],[-83.9118172,34.7200986],[-83.9108175,34.7193294],[-83.9101369,34.7194867],[-83.9091798,34.719714],[-83.9083077,34.7193993],[-83.9067763,34.7191021],[-83.9062871,34.7191545],[-83.9058192,34.7197664],[-83.9050747,34.719679],[-83.9036497,34.7192944],[-83.9018205,34.7186301],[-83.9005443,34.7187],[-83.8985662,34.7187524],[-83.8968009,34.7188923],[-83.8952269,34.7194867],[-83.8940145,34.7196615],[-83.8926533,34.7195042],[-83.8908241,34.7198713],[-83.8883994,34.7192944],[-83.8862299,34.7191371],[-83.8856769,34.7188748],[-83.8854004,34.7173538],[-83.8853578,34.7141718],[-83.8849324,34.7119164],[-83.8821248,34.710098],[-83.8804871,34.7093462],[-83.8791684,34.7079474],[-83.8780623,34.7071956],[-83.8762544,34.7075802],[-83.8744997,34.7077376],[-83.8734149,34.7077638],[-83.8725003,34.707943],[-83.8718676,34.7083714],[-83.8702085,34.7088435],[-83.8696608,34.7088522],[-83.8689696,34.7088566],[-83.8679912,34.7087604],[-83.8673159,34.7090096],[-83.866279,34.70925],[-83.8654229,34.7095036],[-83.8639393,34.7097658],[-83.8627801,34.7098008],[-83.8598343,34.7093025],[-83.8600842,34.7071649],[-83.8584943,34.705871],[-83.8581965,34.7051235],[-83.8584252,34.70414],[-83.859813,34.7028722],[-83.8605103,34.7024924],[-83.861137,34.7019498],[-83.8618261,34.7011595],[-83.8623494,34.7004373],[-83.8564015,34.7003875],[-83.8554744,34.7003797],[-83.849956,34.7000454],[-83.8499788,34.7001487],[-83.8491463,34.7001181],[-83.8487158,34.700056],[-83.8473395,34.6999487],[-83.8473479,34.6984238],[-83.8473644,34.6954305],[-83.8475599,34.6947888],[-83.8477086,34.6947532],[-83.8478321,34.6934369],[-83.8479432,34.6924652],[-83.8477891,34.6919243],[-83.8474793,34.690614],[-83.8472429,34.6902225],[-83.8469467,34.6902662],[-83.8467501,34.6894561],[-83.8470747,34.6894314],[-83.8469947,34.688673],[-83.8485725,34.6886532],[-83.8486775,34.6884107],[-83.8487884,34.6844233],[-83.848136,34.6846454],[-83.847902,34.6850214],[-83.8473171,34.6856773],[-83.8468705,34.6862719],[-83.8461473,34.6863331],[-83.8456049,34.6864118],[-83.844786,34.6863331],[-83.8443181,34.686473],[-83.8435099,34.6867004],[-83.8425315,34.6872338],[-83.8416062,34.6876186],[-83.8404045,34.6875137],[-83.8389369,34.6876011],[-83.8377139,34.6874787],[-83.8368844,34.6875836],[-83.8360442,34.6877847],[-83.834449,34.6883881],[-83.8334281,34.688563],[-83.8329389,34.6888166],[-83.8322582,34.689385],[-83.8313543,34.6893937],[-83.830461,34.6892888],[-83.8293762,34.689009],[-83.8284404,34.689009],[-83.827781,34.689044],[-83.8268345,34.6887991],[-83.8261432,34.6883881],[-83.825654,34.6877148],[-83.8252712,34.6868316],[-83.8252712,34.6863331],[-83.824899,34.6857735],[-83.8242502,34.6849077],[-83.823442,34.6844792],[-83.8230485,34.6841294],[-83.8231549,34.6837621],[-83.8238993,34.6826865],[-83.8246756,34.6813747],[-83.8247394,34.6809899],[-83.824665,34.6803427],[-83.8241864,34.6796344],[-83.8239312,34.6792321],[-83.8236972,34.6785849],[-83.8233037,34.6779902],[-83.8226657,34.6772293],[-83.8221126,34.6766521],[-83.8215065,34.676346],[-83.8207301,34.6759437],[-83.8199325,34.6751828],[-83.8195922,34.6752265],[-83.8184755,34.6747805],[-83.8178268,34.674728],[-83.8168803,34.6745706],[-83.8154765,34.6742207],[-83.8152957,34.6744306],[-83.8147108,34.6750866],[-83.8142429,34.6756551],[-83.8137856,34.6761361],[-83.8136473,34.6771244],[-83.813424,34.6774829],[-83.8128391,34.6780776],[-83.8122223,34.6785849],[-83.8120734,34.6790571],[-83.8125945,34.6793895],[-83.8130199,34.6799317],[-83.8131581,34.6806138],[-83.812754,34.6814971],[-83.8125945,34.6818994],[-83.8116055,34.6823542],[-83.8116161,34.6825903],[-83.8120415,34.6833511],[-83.8122435,34.6836572],[-83.8127966,34.6839283],[-83.8134666,34.6841994],[-83.814211,34.6844005],[-83.8152319,34.6846454],[-83.8160508,34.6848552],[-83.8171356,34.6852663],[-83.8171781,34.6859221],[-83.816976,34.6861058],[-83.8166145,34.6861407],[-83.8158168,34.6859921],[-83.8151149,34.6860183],[-83.8149554,34.6863331],[-83.8149448,34.6868228],[-83.8147321,34.6870589],[-83.8144237,34.6873563],[-83.8143067,34.6876973],[-83.8142004,34.6881258],[-83.813775,34.6886242],[-83.8143811,34.6891751],[-83.8149873,34.68942],[-83.8154765,34.6894462],[-83.8159232,34.6893588],[-83.8160189,34.6896473],[-83.8161253,34.6899272],[-83.8164018,34.6900758],[-83.8167314,34.6902944],[-83.8167421,34.6906967],[-83.8165081,34.6909677],[-83.8159445,34.6911688],[-83.8157849,34.6913437],[-83.8157211,34.6916935],[-83.8157743,34.6920782],[-83.8159232,34.6923318],[-83.8159126,34.6926903],[-83.8155722,34.6929527],[-83.8148916,34.6928477],[-83.8145194,34.6926816],[-83.8139983,34.6925067],[-83.8134985,34.6924193],[-83.8127859,34.692122],[-83.8121159,34.6922881],[-83.8115629,34.6924368],[-83.8108717,34.6921395],[-83.8109355,34.6930051],[-83.8108823,34.6935385],[-83.8105845,34.6939407],[-83.8101804,34.6940457],[-83.8099145,34.6938883],[-83.8097125,34.6935385],[-83.8092871,34.6930663],[-83.8091063,34.6931625],[-83.8083512,34.6933899],[-83.8076812,34.6932237],[-83.807745,34.6928827],[-83.8080641,34.6926641],[-83.8085107,34.6922269],[-83.808532,34.6919646],[-83.807745,34.691641],[-83.8067879,34.6911863],[-83.8066922,34.6914312],[-83.8065114,34.6917372],[-83.8060328,34.6920345],[-83.8057563,34.6924105],[-83.8057563,34.6928215],[-83.8059797,34.6934511],[-83.8058414,34.6939757],[-83.8056712,34.6943255],[-83.8060541,34.6945091],[-83.8072558,34.6944042],[-83.8075642,34.6944566],[-83.8077344,34.6948239],[-83.8075961,34.6951474],[-83.8075855,34.6953223],[-83.8077344,34.6955584],[-83.807862,34.6958032],[-83.807745,34.6961092],[-83.8074366,34.6962404],[-83.8071282,34.6962666],[-83.8068198,34.6961529],[-83.8063093,34.6962054],[-83.8058733,34.696459],[-83.805767,34.6968],[-83.8059584,34.6972721],[-83.806203,34.6978667],[-83.8062774,34.6983651],[-83.8059477,34.6987585],[-83.805735,34.698776],[-83.8054798,34.6991083],[-83.8048736,34.6992656],[-83.8042143,34.6986361],[-83.803874,34.6983651],[-83.8035549,34.6982514],[-83.8030551,34.6982339],[-83.8027254,34.6983388],[-83.8024702,34.6987061],[-83.8023745,34.6989596],[-83.8019703,34.6992482],[-83.8013535,34.6993006],[-83.8011515,34.6992394],[-83.8006303,34.6988897],[-83.8003326,34.698435],[-83.8000561,34.6981465],[-83.7994712,34.6981465],[-83.7988862,34.6983388],[-83.798078,34.6986798],[-83.7980142,34.6988285],[-83.7980248,34.6992044],[-83.7982162,34.6996678],[-83.798195,34.7001662],[-83.7983332,34.7004722],[-83.7980461,34.700787],[-83.797844,34.7008132],[-83.7976207,34.7006034],[-83.7976207,34.7002799],[-83.7975675,34.6999564],[-83.7974718,34.6995542],[-83.7972485,34.6993269],[-83.7973229,34.6996766],[-83.7973548,34.7001138],[-83.7970145,34.7008394],[-83.7969294,34.7014078],[-83.7971315,34.7017837],[-83.796972,34.702116],[-83.7962807,34.7021072],[-83.7962594,34.7025444],[-83.7964934,34.7034274],[-83.7968125,34.7037509],[-83.7972272,34.704258],[-83.7977164,34.7049137],[-83.7976632,34.7054295],[-83.7973974,34.7057618],[-83.7967167,34.7057618],[-83.7964615,34.7057355],[-83.7953874,34.7054383],[-83.7951215,34.7050361],[-83.7947068,34.7044678],[-83.7942814,34.7043104],[-83.7935582,34.7042405],[-83.7930158,34.7039607],[-83.7926861,34.7038121],[-83.792282,34.7040044],[-83.7918141,34.7042667],[-83.7912185,34.7045203],[-83.7908676,34.7047563],[-83.7905698,34.7052197],[-83.79007,34.7056044],[-83.7894851,34.7058492],[-83.7888257,34.7059716],[-83.7885917,34.7062076],[-83.7878792,34.7067672],[-83.7880387,34.7069508],[-83.7885173,34.7072655],[-83.7888257,34.7076064],[-83.7891554,34.7081397],[-83.7891129,34.7089266],[-83.7892617,34.7093724],[-83.7893681,34.7098358],[-83.7895489,34.7099931],[-83.7899424,34.710168],[-83.7897935,34.7105177],[-83.7891767,34.7109723],[-83.7893894,34.7112083],[-83.7897722,34.7113307],[-83.7903997,34.7114268],[-83.7908889,34.711488],[-83.7912398,34.7117328],[-83.7912398,34.7121699],[-83.7913355,34.7125808],[-83.7916227,34.7128605],[-83.791846,34.7132802],[-83.7921757,34.7138309],[-83.7930584,34.7143904],[-83.7937177,34.71474],[-83.7938666,34.7151509],[-83.7938666,34.7155268],[-83.7942814,34.715623],[-83.7947387,34.7159814],[-83.7955044,34.716602],[-83.7970571,34.716908],[-83.7977696,34.7177122],[-83.7982907,34.7184115],[-83.7990989,34.7187],[-83.7998221,34.7189273],[-83.801194,34.7196353],[-83.8025233,34.7203084],[-83.8032252,34.7204832],[-83.8039484,34.7207891],[-83.8046397,34.7213573],[-83.805969,34.7227384],[-83.807745,34.7245565],[-83.8085533,34.7252557],[-83.8090212,34.7260774],[-83.8094998,34.7260337],[-83.809989,34.725754],[-83.8105526,34.7254568],[-83.8114459,34.7249411],[-83.812754,34.7249673],[-83.8137962,34.7255005],[-83.8145088,34.7263483],[-83.8156786,34.7271874],[-83.8167774,34.7284418],[-83.817003,34.7286269],[-83.8177144,34.7294538],[-83.8179473,34.7296037],[-83.8182012,34.729709],[-83.8183889,34.7297523],[-83.8186873,34.7297561],[-83.8190303,34.7296995],[-83.8198549,34.7294906],[-83.8202582,34.7294519],[-83.8205655,34.7295249],[-83.8210945,34.7297604],[-83.821927,34.7301642],[-83.8231521,34.7309907],[-83.8233976,34.7311431],[-83.8235807,34.7311936],[-83.8237748,34.7311809],[-83.8240304,34.7310885],[-83.8242722,34.7309587],[-83.824759,34.730597],[-83.825092,34.7304838],[-83.825353,34.730426],[-83.8256955,34.7304265],[-83.8261273,34.7304904],[-83.826425,34.730559],[-83.8268301,34.7306007],[-83.8272029,34.7305367],[-83.8275114,34.7303846],[-83.827755,34.730158],[-83.827925,34.729831],[-83.827967,34.729382],[-83.827964,34.728171],[-83.8279486,34.7272786],[-83.827952,34.726983],[-83.827991,34.726746],[-83.828047,34.7266416],[-83.828218,34.726418],[-83.8284287,34.726183],[-83.8286608,34.7259939],[-83.828799,34.725906],[-83.8290456,34.7258193],[-83.8292333,34.725784],[-83.8298583,34.7257598],[-83.830215,34.7257862],[-83.8305423,34.7258678],[-83.83092,34.725983],[-83.831389,34.726131],[-83.831801,34.726271],[-83.8323528,34.7264718],[-83.8325888,34.7265842],[-83.833189,34.726953],[-83.83348,34.72716],[-83.8336697,34.7272808],[-83.8340399,34.7275454],[-83.8342866,34.7277129],[-83.8344449,34.7278099],[-83.8346648,34.7278871],[-83.8349009,34.7279179],[-83.8352576,34.7279025],[-83.8360006,34.7278275],[-83.8363197,34.7277416],[-83.8367543,34.7275476],[-83.8370788,34.727369],[-83.8372236,34.7272345],[-83.8373202,34.7270185],[-83.8373336,34.7268444],[-83.8372848,34.7266702],[-83.8372359,34.7265522],[-83.8371164,34.726344],[-83.8370359,34.7261213],[-83.8369903,34.7259405],[-83.8370037,34.7258017],[-83.8370386,34.7256914],[-83.8370922,34.7256099],[-83.8372102,34.7254842],[-83.8374141,34.7252792],[-83.8375911,34.7251161],[-83.8377601,34.7250124],[-83.8379478,34.7249507],[-83.8382161,34.7249419],[-83.8384575,34.7249684],[-83.8386908,34.7250565],[-83.8389242,34.725202],[-83.8390282,34.7252748],[-83.8391386,34.7253403],[-83.8392062,34.7253873],[-83.8394945,34.7255816],[-83.8395314,34.7256093],[-83.8397617,34.725726],[-83.8399292,34.725565],[-83.8401404,34.7256477],[-83.8406597,34.7259113],[-83.8417658,34.7267329],[-83.8433397,34.7275108],[-83.8438927,34.7278167],[-83.8439246,34.728446],[-83.8442224,34.7286471],[-83.8446159,34.7285509],[-83.8451051,34.7281314],[-83.84569,34.7274584],[-83.8464982,34.7265756],[-83.8472959,34.7261211],[-83.8483274,34.7261473],[-83.8495611,34.7261735],[-83.8497738,34.7261036],[-83.8505182,34.7258151],[-83.8507522,34.7261385],[-83.8507734,34.7274147],[-83.8507947,34.7287782],[-83.8504331,34.7296697],[-83.8507841,34.730264],[-83.8511137,34.7311555],[-83.851252,34.7320382],[-83.8510287,34.7330084],[-83.8511457,34.7337075],[-83.8511137,34.7347301],[-83.8511988,34.7352982],[-83.8516668,34.7359187],[-83.8774243,34.7356041],[-83.8934615,34.7352894],[-83.8932063,34.7424032],[-83.9170495,34.7425954],[-83.9171984,34.7409525],[-83.9166241,34.7400436],[-83.9163051,34.7389949],[-83.9156245,34.7375792],[-83.9144546,34.7357264],[-83.9149226,34.7354642],[-83.9154472,34.7351049],[-83.9176025,34.7336289]]]}},{"type":"Feature","properties":{"name":"Mark Trail Wilderness","kind":"wilderness","no_panning":true,"source":"Nominatim/OSM (way 518452049)","display_name":"Mark Trail Wilderness, White County, Georgia, United States"},"geometry":{"type":"Polygon","coordinates":[[[-83.8486505,34.7291348],[-83.8482216,34.7273331],[-83.8474591,34.7267456],[-83.8460295,34.7279598],[-83.8444092,34.7290956],[-83.8436269,34.7289267],[-83.843239,34.7282025],[-83.8416928,34.7271764],[-83.8396837,34.7259865],[-83.8395963,34.7259366],[-83.8397617,34.725726],[-83.8395314,34.7256093],[-83.8394945,34.7255816],[-83.8392062,34.7253873],[-83.8391386,34.7253403],[-83.8390282,34.7252748],[-83.8389242,34.725202],[-83.8386908,34.7250565],[-83.8384575,34.7249684],[-83.8382161,34.7249419],[-83.8379478,34.7249507],[-83.8377601,34.7250124],[-83.8375911,34.7251161],[-83.8374141,34.7252792],[-83.8372102,34.7254842],[-83.8370922,34.7256099],[-83.8370386,34.7256914],[-83.8370037,34.7258017],[-83.8369903,34.7259405],[-83.8370359,34.7261213],[-83.8371164,34.726344],[-83.8372359,34.7265522],[-83.8372848,34.7266702],[-83.8373336,34.7268444],[-83.8373202,34.7270185],[-83.8372236,34.7272345],[-83.8370788,34.727369],[-83.8367543,34.7275476],[-83.8363197,34.7277416],[-83.8360006,34.7278275],[-83.8352576,34.7279025],[-83.8349009,34.7279179],[-83.8346648,34.7278871],[-83.8344449,34.7278099],[-83.8342866,34.7277129],[-83.8340399,34.7275454],[-83.8336697,34.7272808],[-83.83348,34.72716],[-83.833189,34.726953],[-83.8325888,34.7265842],[-83.8323528,34.7264718],[-83.831801,34.726271],[-83.831389,34.726131],[-83.83092,34.725983],[-83.8305423,34.7258678],[-83.830215,34.7257862],[-83.8298583,34.7257598],[-83.8292333,34.725784],[-83.8290456,34.7258193],[-83.828799,34.725906],[-83.8286608,34.7259939],[-83.8284287,34.726183],[-83.828218,34.726418],[-83.828047,34.7266416],[-83.827991,34.726746],[-83.827952,34.726983],[-83.8279486,34.7272786],[-83.827964,34.728171],[-83.827967,34.729382],[-83.827925,34.729831],[-83.827755,34.730158],[-83.8275114,34.7303846],[-83.8272029,34.7305367],[-83.8268301,34.7306007],[-83.826425,34.730559],[-83.8261273,34.7304904],[-83.8256955,34.7304265],[-83.825353,34.730426],[-83.825092,34.7304838],[-83.824759,34.730597],[-83.8242722,34.7309587],[-83.8240304,34.7310885],[-83.8237748,34.7311809],[-83.8235807,34.7311936],[-83.8233976,34.7311431],[-83.8231521,34.7309907],[-83.821927,34.7301642],[-83.8210945,34.7297604],[-83.8205655,34.7295249],[-83.8202582,34.7294519],[-83.8198549,34.7294906],[-83.8190303,34.7296995],[-83.8186873,34.7297561],[-83.8183889,34.7297523],[-83.8182012,34.729709],[-83.8179473,34.7296037],[-83.8177144,34.7294538],[-83.817003,34.7286269],[-83.8167774,34.7284418],[-83.8165698,34.7283452],[-83.8162389,34.7282831],[-83.81577,34.728257],[-83.815093,34.728264],[-83.814568,34.728222],[-83.814231,34.728135],[-83.8138241,34.727951],[-83.813286,34.727512],[-83.8121369,34.7265909],[-83.811415,34.725989],[-83.81121,34.725845],[-83.8109943,34.7257664],[-83.810504,34.725829],[-83.8102165,34.7259317],[-83.809978,34.726062],[-83.8097168,34.7262657],[-83.809475,34.726412],[-83.8091704,34.7264828],[-83.808934,34.726456],[-83.8087037,34.7263219],[-83.8085642,34.7261125],[-83.8085535,34.7258942],[-83.8085803,34.7256517],[-83.8085481,34.725482],[-83.8083953,34.7252704],[-83.8082638,34.7251579],[-83.8077515,34.7247192],[-83.807537,34.7245451],[-83.806618,34.723897],[-83.806239,34.723678],[-83.8053493,34.7233388],[-83.804412,34.723014],[-83.8042147,34.7229155],[-83.8040404,34.7228295],[-83.803705,34.722564],[-83.803263,34.722173],[-83.802966,34.72185],[-83.8028232,34.7213758],[-83.8026373,34.7210942],[-83.8023916,34.7209643],[-83.8021273,34.7208988],[-83.8014393,34.7207656],[-83.8011272,34.7206499],[-83.8009731,34.7204839],[-83.800912,34.7202907],[-83.8008995,34.7198886],[-83.8007976,34.7197189],[-83.8005964,34.7195932],[-83.8003343,34.7195429],[-83.800021,34.719557],[-83.799166,34.719656],[-83.798737,34.719634],[-83.798399,34.719508],[-83.7980885,34.7192978],[-83.797944,34.719015],[-83.797705,34.7181888],[-83.797585,34.717678],[-83.797471,34.717413],[-83.797305,34.717283],[-83.7970452,34.7172364],[-83.7967467,34.7173125],[-83.796458,34.717594],[-83.796293,34.717794],[-83.79603,34.717895],[-83.795592,34.717905],[-83.7956097,34.7215362],[-83.7901769,34.7211837],[-83.7911872,34.7136625],[-83.7912033,34.7134266],[-83.7913052,34.7131466],[-83.791318,34.712928],[-83.791206,34.7127232],[-83.7910558,34.7126262],[-83.790784,34.712439],[-83.7904872,34.7122867],[-83.790199,34.712238],[-83.79001,34.712274],[-83.7897844,34.712419],[-83.789518,34.712671],[-83.789265,34.712802],[-83.7890307,34.7128203],[-83.788777,34.712735],[-83.7885935,34.7125292],[-83.7885238,34.7122668],[-83.7883851,34.7114899],[-83.7883219,34.7113076],[-83.7882326,34.7111506],[-83.7880307,34.710915],[-83.7876574,34.7105052],[-83.7873159,34.7101235],[-83.7871183,34.7099914],[-83.7868259,34.7099473],[-83.7865872,34.7099936],[-83.7863685,34.7101223],[-83.7862252,34.7103148],[-83.7860705,34.7106299],[-83.7859301,34.7108954],[-83.7858147,34.7110873],[-83.7856592,34.7112107],[-83.785501,34.711253],[-83.7852783,34.7112592],[-83.7846562,34.7110015],[-83.7839613,34.7106882],[-83.7836576,34.7105111],[-83.7835724,34.7104037],[-83.7835563,34.7102119],[-83.78361,34.7100752],[-83.7838192,34.7098371],[-83.7841652,34.7095108],[-83.7842939,34.7093807],[-83.7843744,34.7092109],[-83.784369,34.7090742],[-83.784189,34.708764],[-83.7840284,34.7085406],[-83.7839908,34.7083929],[-83.7840338,34.7082165],[-83.7842021,34.7080277],[-83.7844582,34.7078257],[-83.7859082,34.7067442],[-83.7860253,34.7065674],[-83.7860467,34.706417],[-83.7859891,34.7061306],[-83.7857075,34.7056146],[-83.7856565,34.7054161],[-83.7857289,34.7051537],[-83.7859344,34.7049767],[-83.7862697,34.7048819],[-83.7870271,34.7049266],[-83.7873221,34.7048561],[-83.7876672,34.7045522],[-83.7879032,34.704195],[-83.7883669,34.7035154],[-83.7884103,34.7033821],[-83.7884098,34.7032684],[-83.78834,34.703081],[-83.788214,34.7029222],[-83.7877661,34.7026819],[-83.7875381,34.7025496],[-83.7874241,34.702426],[-83.7873196,34.7022684],[-83.7872675,34.7017451],[-83.7872112,34.7012975],[-83.7871431,34.7009455],[-83.7870653,34.7007889],[-83.7869312,34.7006434],[-83.7867944,34.7005486],[-83.7866334,34.7004868],[-83.7864537,34.7004648],[-83.786266,34.700476],[-83.7861426,34.7004978],[-83.786038,34.7005419],[-83.7858054,34.7007171],[-83.7857564,34.7007757],[-83.7855761,34.7011085],[-83.785395,34.7015154],[-83.7852649,34.7017304],[-83.7851434,34.7018417],[-83.7849587,34.7019475],[-83.7846534,34.7020511],[-83.7843285,34.7021482],[-83.7840569,34.7022865],[-83.7839426,34.7023941],[-83.7837163,34.7027518],[-83.7834775,34.7030241],[-83.7832801,34.7031394],[-83.7829206,34.7031901],[-83.7825842,34.7030786],[-83.7821589,34.7027954],[-83.7816085,34.7025768],[-83.781097,34.702453],[-83.7805952,34.7022243],[-83.7804482,34.70201],[-83.780444,34.7016448],[-83.7806783,34.7010556],[-83.7807615,34.700716],[-83.7807444,34.7000516],[-83.7806451,34.6992136],[-83.7805083,34.6989523],[-83.7802089,34.6986542],[-83.7799461,34.698308],[-83.7796995,34.6976434],[-83.779532,34.6973965],[-83.7793131,34.6972296],[-83.7788825,34.6970515],[-83.7785084,34.6968437],[-83.7783233,34.6966342],[-83.7782414,34.6963899],[-83.7781802,34.6960271],[-83.7780541,34.6956566],[-83.7779227,34.6954923],[-83.7775633,34.6953015],[-83.776307,34.6950634],[-83.7757085,34.6950413],[-83.774712,34.69512],[-83.774404,34.695071],[-83.774089,34.694924],[-83.773624,34.694561],[-83.7728086,34.6940133],[-83.7719257,34.693492],[-83.7715108,34.6933914],[-83.7712794,34.6934045],[-83.7716255,34.6939646],[-83.7713927,34.6945416],[-83.7718479,34.6949644],[-83.7719593,34.695119],[-83.7719489,34.6951644],[-83.7718093,34.6952066],[-83.7717668,34.6952558],[-83.7717519,34.6953408],[-83.7716892,34.6954116],[-83.7717149,34.6955047],[-83.7716816,34.6956711],[-83.7716924,34.6958383],[-83.77181,34.6960506],[-83.7721257,34.6962794],[-83.7721642,34.6964036],[-83.7723049,34.696433],[-83.7723495,34.6965405],[-83.77227,34.696621],[-83.7721805,34.6966665],[-83.7722437,34.6967331],[-83.7724988,34.697182],[-83.7725832,34.6974265],[-83.7725018,34.6974398],[-83.7722967,34.6973397],[-83.7722392,34.6972505],[-83.7714856,34.6968936],[-83.7713186,34.6969117],[-83.7712334,34.6970018],[-83.7716728,34.6975785],[-83.7718474,34.6976327],[-83.7719308,34.697718],[-83.7719309,34.6978162],[-83.7718434,34.6978825],[-83.77168,34.697908],[-83.7715283,34.6979704],[-83.7713842,34.6979361],[-83.7712401,34.6979766],[-83.7710478,34.6980515],[-83.7709815,34.6979165],[-83.7709912,34.6977254],[-83.7708339,34.6976091],[-83.7706415,34.6976851],[-83.7705604,34.6977823],[-83.7705351,34.697937],[-83.7704338,34.6980605],[-83.7704537,34.6982611],[-83.7704158,34.6984758],[-83.770281,34.6986101],[-83.7701421,34.6988722],[-83.7699878,34.6989851],[-83.7701101,34.6992771],[-83.7700216,34.6993662],[-83.7697016,34.6994614],[-83.7695758,34.6998051],[-83.7691136,34.6996983],[-83.7679889,34.7007146],[-83.7680575,34.7011161],[-83.7680329,34.7015503],[-83.7679332,34.701555],[-83.7675019,34.7011242],[-83.766838,34.7017507],[-83.7670648,34.7018631],[-83.7676644,34.7025412],[-83.7679305,34.7035748],[-83.7677236,34.7050194],[-83.7631362,34.7048907],[-83.763139,34.7050869],[-83.7629828,34.7063761],[-83.762808,34.7078225],[-83.762622,34.7078609],[-83.7627087,34.7080623],[-83.7629694,34.7082368],[-83.7631807,34.7087352],[-83.7632244,34.7092217],[-83.763183,34.7095203],[-83.7632515,34.709809],[-83.7632315,34.7099501],[-83.7630685,34.7110951],[-83.763155,34.7112951],[-83.7630527,34.7116923],[-83.7635139,34.7131616],[-83.7627111,34.7129573],[-83.7612578,34.71286],[-83.7600384,34.7125722],[-83.759729,34.7123495],[-83.7586742,34.7121732],[-83.7587454,34.7136752],[-83.7558701,34.7195473],[-83.7558706,34.719889],[-83.755844,34.7203132],[-83.755208,34.7211438],[-83.75513,34.721216],[-83.754904,34.721428],[-83.754734,34.721533],[-83.7546072,34.7215919],[-83.7541553,34.7230756],[-83.7555475,34.7231649],[-83.7555668,34.7234015],[-83.7555234,34.7235576],[-83.7553442,34.7237114],[-83.7553166,34.7238034],[-83.7552395,34.7242218],[-83.7551733,34.7244721],[-83.7551727,34.724753],[-83.7552912,34.7251151],[-83.7553647,34.7251769],[-83.7554642,34.7252043],[-83.755606,34.7251986],[-83.755857,34.7252148],[-83.7562434,34.7252429],[-83.7562733,34.7261242],[-83.7574497,34.7258609],[-83.7578002,34.7259226],[-83.7584413,34.7258485],[-83.7587276,34.7256625],[-83.7594123,34.7264024],[-83.7592653,34.7267013],[-83.7618274,34.7267386],[-83.7622452,34.7263758],[-83.762563,34.7262146],[-83.7630803,34.726083],[-83.763536,34.7256434],[-83.7639411,34.7254797],[-83.7640362,34.7253608],[-83.7641663,34.7252111],[-83.7643765,34.7250367],[-83.7645366,34.7248278],[-83.7648519,34.7246415],[-83.7650968,34.7245836],[-83.7654474,34.7244659],[-83.7656701,34.724237],[-83.7658729,34.7239834],[-83.7663635,34.7243031],[-83.7661778,34.7247888],[-83.7656082,34.7254437],[-83.7657594,34.7255632],[-83.765873,34.7257687],[-83.7656869,34.7259098],[-83.7654405,34.7258091],[-83.7652153,34.7258888],[-83.7651029,34.7259905],[-83.7642439,34.7268112],[-83.7641631,34.7268791],[-83.7633133,34.7274886],[-83.7631084,34.7278814],[-83.7629611,34.728151],[-83.7621453,34.7288533],[-83.7621706,34.7291215],[-83.7623963,34.729583],[-83.7631428,34.7299409],[-83.7635768,34.7299618],[-83.7636466,34.7301023],[-83.7635508,34.7304182],[-83.7638471,34.7307994],[-83.7640641,34.7308299],[-83.7644901,34.7306035],[-83.7653965,34.7306971],[-83.7657158,34.7306385],[-83.765932,34.7305],[-83.7663977,34.7304659],[-83.7666324,34.7302579],[-83.7665976,34.7300345],[-83.766824,34.7295207],[-83.7668399,34.7293519],[-83.7669567,34.729299],[-83.7670192,34.7291984],[-83.7671926,34.7291553],[-83.7673817,34.7287752],[-83.767778,34.7287293],[-83.768738,34.7274397],[-83.7687156,34.7350974],[-83.7647182,34.7351725],[-83.7649052,34.7353658],[-83.765145,34.735508],[-83.7655645,34.7356989],[-83.7657362,34.7358134],[-83.7663209,34.7361639],[-83.767153,34.7366561],[-83.7676201,34.7368881],[-83.767796,34.7369629],[-83.7680636,34.7370473],[-83.7683564,34.7370789],[-83.7691466,34.7371223],[-83.7697166,34.7371426],[-83.7700908,34.7371989],[-83.7704301,34.7372748],[-83.770924,34.7373647],[-83.7710743,34.7374955],[-83.7712348,34.737687],[-83.7713451,34.7379314],[-83.7714359,34.7381984],[-83.7715148,34.7384418],[-83.771651,34.738739],[-83.771772,34.738999],[-83.7718756,34.7393264],[-83.7719241,34.7395495],[-83.772041,34.7397948],[-83.7721628,34.7399683],[-83.7723231,34.7400957],[-83.772854,34.740534],[-83.7732142,34.7407419],[-83.7734583,34.7409469],[-83.7736658,34.7410571],[-83.7737989,34.7410879],[-83.7739318,34.7410963],[-83.7741476,34.7411122],[-83.7742567,34.7411571],[-83.7743112,34.7412025],[-83.7743421,34.7412543],[-83.774361,34.7413776],[-83.7743421,34.7416588],[-83.7743919,34.7419401],[-83.7744521,34.742147],[-83.7745506,34.7423544],[-83.7745647,34.7424368],[-83.774507,34.7424842],[-83.774448,34.7425],[-83.7744078,34.742504],[-83.7743116,34.7424865],[-83.7742147,34.7424225],[-83.7740521,34.7423107],[-83.7739411,34.7422792],[-83.7738566,34.7422748],[-83.7737707,34.7423176],[-83.7734315,34.7426112],[-83.7733765,34.7427002],[-83.7733392,34.7427992],[-83.7733604,34.7428886],[-83.7734183,34.7429778],[-83.773642,34.7431454],[-83.7738378,34.7433264],[-83.7739907,34.7434804],[-83.774098,34.7436325],[-83.774306,34.743969],[-83.7745781,34.7441659],[-83.7747297,34.7442496],[-83.7748929,34.7443385],[-83.7749939,34.7444535],[-83.7750421,34.7445769],[-83.7750904,34.744731],[-83.7752142,34.7450105],[-83.7753066,34.745223],[-83.7754024,34.7454847],[-83.775482,34.7456216],[-83.7754886,34.7457666],[-83.7754686,34.7458673],[-83.7753841,34.7459764],[-83.7753439,34.7460337],[-83.7753282,34.7461029],[-83.775364,34.7462244],[-83.7754628,34.7462989],[-83.7756121,34.7463643],[-83.7757762,34.7464195],[-83.7759383,34.7466191],[-83.7759742,34.7467434],[-83.7759823,34.7468348],[-83.7759624,34.7469069],[-83.7759482,34.7469752],[-83.776056,34.7471324],[-83.7761995,34.7472164],[-83.7765443,34.7473933],[-83.7767413,34.7474486],[-83.7768727,34.7474151],[-83.7771565,34.7473576],[-83.7773314,34.7473495],[-83.7774918,34.7473883],[-83.7776962,34.74742],[-83.7779966,34.7473472],[-83.7781549,34.7473252],[-83.7783283,34.7472634],[-83.7784874,34.7472062],[-83.7786169,34.7471469],[-83.7787986,34.7470916],[-83.7789589,34.7470605],[-83.779166,34.7470255],[-83.7794117,34.7470253],[-83.7795737,34.7470012],[-83.779732,34.7469373],[-83.7798753,34.7468959],[-83.7800217,34.7468888],[-83.7801633,34.7468991],[-83.7802175,34.7469219],[-83.7802631,34.7469858],[-83.7801787,34.747068],[-83.780196,34.747081],[-83.780045,34.747148],[-83.7797273,34.7475447],[-83.7794506,34.7477447],[-83.779269,34.747922],[-83.779125,34.748162],[-83.7790534,34.7483015],[-83.7788855,34.7484403],[-83.7787213,34.7485324],[-83.7784666,34.7486688],[-83.7781827,34.7488154],[-83.7780315,34.748912],[-83.7778422,34.7490097],[-83.7782391,34.7492637],[-83.7812891,34.7483435],[-83.7836004,34.7467576],[-83.7852207,34.7462681],[-83.7866265,34.7470121],[-83.7879847,34.7472667],[-83.7892952,34.7472471],[-83.7906534,34.7480302],[-83.7916304,34.747345],[-83.7925358,34.7468751],[-83.794728,34.7465227],[-83.7966104,34.7467968],[-83.7990409,34.7461311],[-83.8008756,34.7455437],[-83.8016381,34.7450347],[-83.8027818,34.7444669],[-83.8050216,34.7442711],[-83.8073568,34.7442711],[-83.8082622,34.7444277],[-83.8085958,34.7511432],[-83.8093583,34.7518675],[-83.8088818,34.7526702],[-83.8076189,34.7530226],[-83.8079048,34.7555676],[-83.8075474,34.7658448],[-83.8086673,34.7670193],[-83.8095489,34.7677435],[-83.8098825,34.7687809],[-83.8105021,34.769603],[-83.8109786,34.7703859],[-83.8110501,34.7714233],[-83.810788,34.7720692],[-83.8117411,34.7734197],[-83.8132184,34.7749464],[-83.8154583,34.7757293],[-83.8167211,34.7758467],[-83.8174598,34.7773342],[-83.8089056,34.7948489],[-83.8076665,34.7932835],[-83.8070947,34.7918355],[-83.8056888,34.790133],[-83.8045213,34.7891741],[-83.8032584,34.7884501],[-83.8019955,34.7870607],[-83.8016619,34.7878043],[-83.8009233,34.7873542],[-83.8007088,34.7870607],[-83.8004705,34.7866302],[-83.7996842,34.7860822],[-83.7997795,34.7854951],[-83.7997795,34.7837925],[-83.7989694,34.7837534],[-83.7985166,34.7839491],[-83.7979686,34.7840274],[-83.7972538,34.7838121],[-83.7967057,34.784047],[-83.7964913,34.7838708],[-83.7959671,34.7840078],[-83.7953237,34.78391],[-83.7947757,34.7842622],[-83.7948471,34.7847906],[-83.7945612,34.7852994],[-83.7940847,34.7856125],[-83.7928694,34.7849276],[-83.7927026,34.7841644],[-83.7920831,34.783362],[-83.7912015,34.7833033],[-83.789605,34.7830097],[-83.7891523,34.7835577],[-83.7896765,34.7843209],[-83.7899386,34.7846145],[-83.7896288,34.785045],[-83.7893429,34.7852994],[-83.7891761,34.7964926],[-83.7892238,34.801032],[-83.7785012,34.8011103],[-83.7785727,34.786591],[-83.7777387,34.7867084],[-83.7777149,34.7873542],[-83.7759993,34.7875108],[-83.7754751,34.7875108],[-83.774522,34.7870998],[-83.7736165,34.7872955],[-83.772711,34.7873542],[-83.7718532,34.7873542],[-83.7714482,34.787002],[-83.7714005,34.7866693],[-83.7703044,34.7866106],[-83.7691845,34.7865127],[-83.7685173,34.7867671],[-83.7664681,34.7861801],[-83.7652767,34.7862975],[-83.7643951,34.787139],[-83.7638947,34.7879804],[-83.7635373,34.7893111],[-83.7632514,34.7901721],[-83.7625127,34.7903678],[-83.7619647,34.7900352],[-83.7619647,34.7895068],[-83.7619408,34.7890959],[-83.7624412,34.7885284],[-83.7621076,34.788137],[-83.7617979,34.7876478],[-83.7617026,34.7872759],[-83.761226,34.7867476],[-83.7608924,34.7863953],[-83.7609401,34.7859648],[-83.7604873,34.78573],[-83.7593674,34.7860822],[-83.7586616,34.78684],[-83.7588194,34.7875108],[-83.7582713,34.7879609],[-83.7575327,34.7880783],[-83.7572944,34.7886849],[-83.7571038,34.7895068],[-83.7566987,34.7908766],[-83.7564128,34.7917768],[-83.7565796,34.7928139],[-83.7564128,34.7934596],[-83.7556027,34.7935519],[-83.7553484,34.7935809],[-83.7544112,34.794164],[-83.7530769,34.7939292],[-83.7526219,34.7944087],[-83.7523786,34.7954699],[-83.7522191,34.7955338],[-83.7510515,34.7956707],[-83.7499078,34.7953577],[-83.74793,34.7953185],[-83.7472867,34.7963556],[-83.7470154,34.7971911],[-83.7470008,34.7972361],[-83.7474297,34.7984297],[-83.7466433,34.7989188],[-83.745857,34.7989775],[-83.745166,34.7997798],[-83.7438793,34.8001124],[-83.7432004,34.8003784],[-83.742998,34.802257],[-83.7429482,34.8028272],[-83.7429076,34.803228],[-83.742939,34.803582],[-83.742993,34.803765],[-83.7432736,34.8042825],[-83.743389,34.8045345],[-83.7435076,34.8048716],[-83.743552,34.8051045],[-83.7435656,34.8054191],[-83.7435503,34.806317],[-83.7435932,34.8066649],[-83.743641,34.8068429],[-83.7437623,34.8073594],[-83.7438597,34.807703],[-83.7439067,34.8080181],[-83.7439296,34.8086621],[-83.7439407,34.8088482],[-83.743981,34.8089439],[-83.7441449,34.8091149],[-83.744547,34.809308],[-83.744634,34.809367],[-83.744717,34.809444],[-83.744833,34.809586],[-83.744867,34.809655],[-83.744885,34.809729],[-83.744877,34.809804],[-83.744853,34.809888],[-83.744776,34.8100783],[-83.7446054,34.8102335],[-83.7443195,34.8103891],[-83.7441937,34.8104745],[-83.7441039,34.8105695],[-83.7440589,34.8106529],[-83.744048,34.8107343],[-83.7440527,34.8108252],[-83.7440773,34.8109288],[-83.744133,34.811074],[-83.7442843,34.8112517],[-83.7443529,34.8114418],[-83.7443387,34.8115879],[-83.7442975,34.8116966],[-83.744618,34.8117535],[-83.7459445,34.8117946],[-83.7459494,34.8196282],[-83.7533393,34.8197079],[-83.7532272,34.8228706],[-83.7643713,34.8276375],[-83.770495,34.8300433],[-83.7839578,34.8322339],[-83.7878656,34.8368496],[-83.7853636,34.8377492],[-83.7821707,34.8390986],[-83.7849109,34.8418366],[-83.7871269,34.8443593],[-83.7878656,34.8445744],[-83.7881992,34.8452588],[-83.7889617,34.8457282],[-83.789605,34.8461388],[-83.7898314,34.8465495],[-83.7942991,34.8451904],[-83.800268,34.8386977],[-83.8038541,34.8238233],[-83.8153868,34.8201458],[-83.8230117,34.808682],[-83.8287652,34.8121875],[-83.8343453,34.794593],[-83.8294929,34.7870411],[-83.8311132,34.7869237],[-83.8339249,34.7844971],[-83.8348304,34.7802307],[-83.8358311,34.7747115],[-83.8385475,34.7676652],[-83.8399295,34.7659427],[-83.8395483,34.7608532],[-83.8420264,34.7568597],[-83.8417881,34.7557634],[-83.8436943,34.7503992],[-83.8446474,34.7497727],[-83.8437896,34.7485589],[-83.8437896,34.746601],[-83.844981,34.7455829],[-83.8447428,34.7447606],[-83.8453146,34.7438208],[-83.8459341,34.7430376],[-83.8465537,34.7402572],[-83.846649,34.7379858],[-83.8472209,34.736106],[-83.8476974,34.734657],[-83.8482216,34.7321113],[-83.8486505,34.7291348]]]}},{"type":"Feature","properties":{"name":"Blood Mountain Wilderness","kind":"wilderness","no_panning":true,"source":"Nominatim/OSM (relation 14582137)","display_name":"Blood Mountain Wilderness, Lumpkin County, Georgia, United States"},"geometry":{"type":"Polygon","coordinates":[[[-83.9995444,34.6784555],[-83.9993298,34.6776879],[-83.9986432,34.6779702],[-83.9977419,34.6778467],[-83.9971304,34.6777673],[-83.9967442,34.6778026],[-83.9959717,34.6779702],[-83.9947808,34.6781467],[-83.9925385,34.6769468],[-83.991648,34.676435],[-83.9897061,34.675888],[-83.9890838,34.6755351],[-83.9883328,34.6750763],[-83.9871311,34.6746616],[-83.9864659,34.6745469],[-83.9853394,34.6749439],[-83.9840305,34.6747763],[-83.9829469,34.6745292],[-83.9823461,34.6742998],[-83.9811981,34.6741939],[-83.9806434,34.6744137],[-83.9811337,34.674741],[-83.9812088,34.6759586],[-83.9811874,34.6774232],[-83.9805719,34.6786918],[-83.9808682,34.6792584],[-83.9809524,34.6793146],[-83.9810154,34.6793995],[-83.9810299,34.6795133],[-83.9810818,34.6796426],[-83.9812233,34.6797306],[-83.9814717,34.6797701],[-83.9816031,34.6798363],[-83.9816856,34.6799199],[-83.9817682,34.6801125],[-83.981735,34.6802907],[-83.9816537,34.6804321],[-83.9816278,34.6804818],[-83.9815315,34.6805454],[-83.981351,34.6806281],[-83.981104,34.680704],[-83.9808896,34.6807097],[-83.9807501,34.6806877],[-83.9805576,34.6807361],[-83.9803682,34.6807424],[-83.9800045,34.6807141],[-83.9797955,34.680692],[-83.9796605,34.6807074],[-83.9795124,34.6806945],[-83.9789859,34.6807625],[-83.9786539,34.680805],[-83.9784399,34.6808851],[-83.9781956,34.6809594],[-83.9781082,34.6809876],[-83.978022,34.681044],[-83.9778,34.681224],[-83.977734,34.681305],[-83.977407,34.681497],[-83.977281,34.681611],[-83.976933,34.68179],[-83.9768078,34.6818767],[-83.9766856,34.6820581],[-83.976598,34.682166],[-83.9765009,34.6822923],[-83.9765171,34.6823702],[-83.9765486,34.6825804],[-83.9765907,34.6826473],[-83.9766128,34.6827235],[-83.9766486,34.682775],[-83.9767076,34.6828736],[-83.9768015,34.6829979],[-83.9759731,34.6841814],[-83.9753401,34.6849754],[-83.9742565,34.6852665],[-83.973763,34.6857782],[-83.9739454,34.6869163],[-83.9723361,34.6880896],[-83.9715314,34.6904362],[-83.9715636,34.6913801],[-83.971113,34.6925004],[-83.971072,34.692589],[-83.970872,34.692541],[-83.970806,34.69249],[-83.970642,34.69248],[-83.970504,34.692384],[-83.969941,34.692253],[-83.969869,34.692164],[-83.969722,34.692118],[-83.969542,34.692125],[-83.969387,34.692084],[-83.969192,34.692098],[-83.968649,34.691844],[-83.968131,34.691486],[-83.967629,34.691337],[-83.9671,34.6913],[-83.966733,34.691213],[-83.966532,34.691196],[-83.966353,34.691198],[-83.966107,34.691173],[-83.965923,34.691113],[-83.965788,34.691128],[-83.965617,34.691093],[-83.965527,34.691097],[-83.965341,34.691092],[-83.9652765,34.6910537],[-83.964629,34.690735],[-83.96421,34.69057],[-83.963607,34.690392],[-83.963282,34.690304],[-83.963133,34.690281],[-83.962809,34.690168],[-83.962689,34.690172],[-83.962542,34.690106],[-83.962254,34.690031],[-83.962061,34.689995],[-83.961896,34.689991],[-83.961711,34.689944],[-83.961607,34.689935],[-83.961394,34.689837],[-83.961212,34.689823],[-83.961072,34.689764],[-83.9608165,34.6898013],[-83.959983,34.689718],[-83.9592174,34.6893589],[-83.958924,34.689279],[-83.958543,34.689161],[-83.9580882,34.6892012],[-83.957004,34.689178],[-83.956692,34.689133],[-83.956367,34.689033],[-83.955868,34.688983],[-83.955156,34.688759],[-83.954437,34.688401],[-83.954157,34.68829],[-83.9536786,34.6881072],[-83.9530319,34.6879951],[-83.952319,34.687796],[-83.951435,34.687669],[-83.950912,34.687471],[-83.950579,34.687389],[-83.950407,34.687384],[-83.949772,34.687291],[-83.949496,34.687266],[-83.948968,34.687197],[-83.948664,34.68714],[-83.948329,34.687113],[-83.9480547,34.6871502],[-83.947885,34.6871457],[-83.9470896,34.6871573],[-83.947566,34.687563],[-83.947723,34.687758],[-83.948038,34.688136],[-83.948132,34.688404],[-83.948132,34.6885464],[-83.948163,34.689093],[-83.948241,34.689613],[-83.948282,34.689916],[-83.948424,34.690339],[-83.948604,34.690625],[-83.948831,34.690926],[-83.949132,34.691279],[-83.949256,34.691357],[-83.949291,34.691444],[-83.9495853,34.6918005],[-83.9496868,34.6918722],[-83.9497841,34.6921299],[-83.9504726,34.6929374],[-83.9506218,34.6929908],[-83.9507909,34.6931078],[-83.9509334,34.693278],[-83.9512029,34.69351],[-83.9514385,34.6937392],[-83.9515877,34.6939359],[-83.9515329,34.6934532],[-83.9530456,34.6936031],[-83.9529383,34.6940971],[-83.9534962,34.6940883],[-83.9534962,34.6950851],[-83.9518809,34.6949063],[-83.951871,34.695007],[-83.951955,34.695163],[-83.951988,34.6953],[-83.951962,34.695535],[-83.951955,34.695583],[-83.951883,34.695704],[-83.951822,34.695752],[-83.951785,34.69593],[-83.951511,34.696263],[-83.951352,34.696536],[-83.951367,34.696644],[-83.951414,34.696775],[-83.951521,34.696932],[-83.951629,34.69704],[-83.951865,34.697305],[-83.9522257,34.6977136],[-83.9523859,34.6977997],[-83.9526326,34.6978179],[-83.9530264,34.697757],[-83.9534943,34.6976937],[-83.9539147,34.697749],[-83.9541181,34.6978117],[-83.9545175,34.6980521],[-83.955169,34.698473],[-83.955532,34.698766],[-83.9555669,34.698834],[-83.9560497,34.6994515],[-83.95615,34.699537],[-83.956284,34.6997398],[-83.9565051,34.7001099],[-83.9565903,34.7003423],[-83.956634,34.700598],[-83.956886,34.701157],[-83.9571043,34.7016666],[-83.957415,34.702416],[-83.9574123,34.7028474],[-83.957423,34.7031472],[-83.95744,34.703673],[-83.9575319,34.7053986],[-83.9574806,34.7055272],[-83.957376,34.7055713],[-83.9572912,34.705561],[-83.9568191,34.7050435],[-83.9564928,34.7045928],[-83.9560196,34.7040114],[-83.9558914,34.7037894],[-83.9558654,34.7035759],[-83.9558205,34.7032477],[-83.9556688,34.7030881],[-83.9554658,34.7029443],[-83.9552192,34.7028181],[-83.9548515,34.7027118],[-83.9545861,34.7026708],[-83.9545128,34.7027],[-83.9545738,34.7027883],[-83.955017,34.703082],[-83.9552174,34.7032768],[-83.955352,34.703994],[-83.9555556,34.7044541],[-83.955717,34.7047576],[-83.9557552,34.7052248],[-83.9555702,34.70584],[-83.955015,34.70647],[-83.9546931,34.7068017],[-83.9544947,34.7071545],[-83.9544618,34.7074691],[-83.9544464,34.707719],[-83.9548588,34.7098151],[-83.9558995,34.7107941],[-83.9562214,34.7111116],[-83.9559102,34.7115349],[-83.9550841,34.7116408],[-83.9542365,34.7114732],[-83.9535499,34.7113938],[-83.9529705,34.7116849],[-83.9527023,34.7120024],[-83.9523697,34.7129108],[-83.9480353,34.712849],[-83.9426494,34.7085275],[-83.9389157,34.7056081],[-83.938994,34.699632],[-83.939212,34.699199],[-83.9393081,34.6988754],[-83.9393253,34.6987359],[-83.9393421,34.6985985],[-83.9393482,34.6985493],[-83.9393583,34.698467],[-83.939393,34.698251],[-83.939359,34.698151],[-83.939545,34.697767],[-83.939631,34.697658],[-83.939753,34.6971049],[-83.939776,34.6970465],[-83.939764,34.696992],[-83.939782,34.696906],[-83.939976,34.696498],[-83.940301,34.695796],[-83.940331,34.695587],[-83.9405357,34.6950837],[-83.940545,34.694942],[-83.9404892,34.6948042],[-83.940398,34.694481],[-83.940036,34.694182],[-83.939988,34.694058],[-83.939999,34.69375],[-83.940126,34.693555],[-83.9405015,34.6932105],[-83.941106,34.692812],[-83.9415659,34.6922229],[-83.941781,34.691724],[-83.9420391,34.6913183],[-83.942282,34.690574],[-83.942364,34.690181],[-83.942483,34.689579],[-83.9427459,34.6889718],[-83.9427459,34.6884601],[-83.9422095,34.6880102],[-83.9407718,34.687525],[-83.939184,34.6873927],[-83.9365125,34.6877808],[-83.9352465,34.688019],[-83.9341843,34.6880014],[-83.9310622,34.6878514],[-83.9303219,34.6878426],[-83.9299035,34.6884072],[-83.9298391,34.6893864],[-83.9307833,34.6910184],[-83.9310515,34.6926681],[-83.9308691,34.6940442],[-83.929925,34.6953938],[-83.9296353,34.6958437],[-83.929528,34.7017448],[-83.9282942,34.7028826],[-83.9277148,34.7035706],[-83.9286375,34.7043027],[-83.9299035,34.7053876],[-83.9306009,34.7064636],[-83.93103,34.7078572],[-83.9316523,34.709233],[-83.9318562,34.7100533],[-83.9309979,34.7107147],[-83.9297426,34.7112174],[-83.929292,34.7117025],[-83.9292705,34.7122317],[-83.9302468,34.7144277],[-83.9310193,34.7157064],[-83.9317703,34.7167559],[-83.9317274,34.7187754],[-83.9318562,34.7194191],[-83.9309013,34.7216149],[-83.9306116,34.7218354],[-83.9300215,34.7232992],[-83.9280582,34.7272937],[-83.9270496,34.7293394],[-83.927329,34.7312219],[-83.9273715,34.7315085],[-83.9271247,34.7320728],[-83.9255905,34.7317554],[-83.9238203,34.7318259],[-83.9228869,34.7324167],[-83.9228869,34.7329457],[-83.9224577,34.7329634],[-83.9224362,34.7337657],[-83.9222324,34.7339068],[-83.9221788,34.7357583],[-83.9217603,34.7360581],[-83.920666,34.7353528],[-83.9206767,34.7350001],[-83.9198077,34.7347885],[-83.9185524,34.73515],[-83.9184558,34.7354586],[-83.9187026,34.7364725],[-83.9193249,34.7375393],[-83.9194429,34.7383769],[-83.9193249,34.73895],[-83.9198077,34.7395848],[-83.9202583,34.7401314],[-83.920577,34.7406177],[-83.9207089,34.740819],[-83.9211595,34.740916],[-83.9216101,34.7411981],[-83.9226616,34.7414097],[-83.9228547,34.7420709],[-83.92205,34.7428291],[-83.9215028,34.742979],[-83.9211178,34.7430197],[-83.9207997,34.7445402],[-83.9203227,34.7451698],[-83.9195131,34.7456094],[-83.9194263,34.7459182],[-83.9200046,34.7467023],[-83.9199323,34.7475338],[-83.9194986,34.748294],[-83.9196432,34.7487692],[-83.9209299,34.7490899],[-83.9226936,34.7492562],[-83.9236622,34.7492206],[-83.9240237,34.7490424],[-83.9243996,34.7485554],[-83.9249634,34.7483534],[-83.9251947,34.7480802],[-83.9251802,34.7477357],[-83.9254115,34.74751],[-83.9257007,34.7476645],[-83.9269295,34.7493869],[-83.9288668,34.7510499],[-83.932164,34.754293],[-83.932584,34.754265],[-83.93301,34.754063],[-83.933256,34.753996],[-83.9334316,34.7538986],[-83.9335085,34.7554704],[-83.938394,34.7601364],[-83.9390879,34.760077],[-83.9389144,34.7606709],[-83.9390446,34.7610391],[-83.9394494,34.7606827],[-83.9398108,34.7603739],[-83.9402156,34.7605283],[-83.9406059,34.7612172],[-83.9402156,34.7617398],[-83.9401144,34.7625949],[-83.9400855,34.7637232],[-83.9403023,34.7645071],[-83.9398831,34.7658016],[-83.9399409,34.7664192],[-83.9404035,34.7666923],[-83.941271,34.7666686],[-83.9422685,34.7669417],[-83.9431937,34.7666805],[-83.9435985,34.7663954],[-83.9442202,34.7660035],[-83.9446684,34.7655641],[-83.9447696,34.7646496],[-83.9454346,34.7639608],[-83.9459406,34.7632482],[-83.946143,34.7625949],[-83.9466056,34.762393],[-83.9471983,34.7619298],[-83.9485573,34.7617042],[-83.9489766,34.7624643],[-83.9493958,34.7630106],[-83.9502488,34.7634619],[-83.9501042,34.7639964],[-83.9509716,34.763842],[-83.9512752,34.7637707],[-83.9578243,34.7560031],[-83.9627108,34.7502184],[-83.9620458,34.7499095],[-83.9613952,34.7493869],[-83.9595591,34.7488048],[-83.9584459,34.7483772],[-83.956899,34.7481159],[-83.9545859,34.7480921],[-83.9529956,34.7479258],[-83.9520848,34.7476645],[-83.9509138,34.7477001],[-83.9503644,34.7479852],[-83.9516222,34.7407744],[-83.9538631,34.7369608],[-83.9575468,34.7305056],[-83.9575785,34.7304501],[-83.9587206,34.7267786],[-83.9587227,34.7266453],[-83.9587785,34.7230357],[-83.9632168,34.7231665],[-83.9632697,34.7242463],[-83.9633903,34.7267073],[-83.9647816,34.7266966],[-83.9649227,34.7266955],[-83.9656311,34.7251033],[-83.9660504,34.7245092],[-83.9663395,34.7237843],[-83.967178,34.7234397],[-83.9689129,34.7235586],[-83.970373,34.7234279],[-83.9711537,34.723309],[-83.9719922,34.7232021],[-83.972397,34.722608],[-83.9726139,34.7211702],[-83.9730187,34.7201958],[-83.9729464,34.7192214],[-83.9733801,34.7189124],[-83.9744644,34.7188055],[-83.9755197,34.7186035],[-83.9762426,34.718045],[-83.9767909,34.7174774],[-83.9770233,34.7172369],[-83.9770411,34.7171968],[-83.9774136,34.7163575],[-83.9780497,34.7160723],[-83.9793653,34.7162743],[-83.9797574,34.7162715],[-83.9806695,34.716265],[-83.9810134,34.7162625],[-83.9818086,34.7160842],[-83.9830519,34.7155851],[-83.9840494,34.714777],[-83.9849313,34.7140164],[-83.9861023,34.7122695],[-83.9865505,34.7108434],[-83.9873601,34.7091796],[-83.987707,34.7085854],[-83.9858276,34.7086165],[-83.9858373,34.7084931],[-83.9861457,34.7051626],[-83.9906274,34.7052101],[-83.9911817,34.7034565],[-83.9925357,34.6991723],[-83.9935148,34.6961172],[-83.9950276,34.6915654],[-83.9981818,34.6823904],[-83.9995444,34.6784555]]]}},{"type":"Feature","properties":{"name":"Brasstown Wilderness","kind":"wilderness","no_panning":true,"source":"Nominatim/OSM (relation 9633988)","display_name":"Brasstown Wilderness, Union County, Georgia, United States"},"geometry":{"type":"Polygon","coordinates":[[[-83.8731455,34.8663975],[-83.8731351,34.8634732],[-83.8640605,34.8634783],[-83.863909,34.8669133],[-83.8637948,34.869237],[-83.8603817,34.8693797],[-83.8607199,34.8675829],[-83.8607304,34.8675272],[-83.8605673,34.8672434],[-83.859755,34.8655777],[-83.8601539,34.8649524],[-83.8607304,34.8642752],[-83.8612702,34.8635306],[-83.8613899,34.8628167],[-83.8612824,34.8623756],[-83.8614053,34.8615941],[-83.8609752,34.8616132],[-83.8610444,34.8608696],[-83.8611735,34.8599482],[-83.8610195,34.8596912],[-83.8608226,34.8595442],[-83.8602548,34.859461],[-83.8599489,34.8590837],[-83.859943,34.8588594],[-83.8601286,34.8583802],[-83.8605484,34.8579429],[-83.8609676,34.8577341],[-83.8616348,34.8573638],[-83.8622834,34.8570038],[-83.8630158,34.8569419],[-83.8641848,34.8572092],[-83.8641839,34.855576],[-83.8591936,34.855507],[-83.8523588,34.8555763],[-83.8525892,34.8553242],[-83.8532189,34.8546751],[-83.8534416,34.8537298],[-83.8535107,34.8528917],[-83.8532727,34.8522552],[-83.8532266,34.8519338],[-83.8525431,34.8508372],[-83.8521668,34.85027],[-83.8519979,34.84906],[-83.8517291,34.8480201],[-83.8510917,34.8469361],[-83.8503007,34.845663],[-83.8496249,34.8447743],[-83.8490643,34.8441567],[-83.8479969,34.8433436],[-83.8465377,34.8422722],[-83.8461691,34.841894],[-83.8460232,34.8413078],[-83.8459541,34.8406208],[-83.8453167,34.8393602],[-83.8447407,34.8383643],[-83.8445488,34.8377277],[-83.8446179,34.8373937],[-83.8439805,34.8372235],[-83.8426135,34.8370281],[-83.8415768,34.836965],[-83.8405631,34.8372739],[-83.839918,34.8377592],[-83.8396646,34.8383833],[-83.8382055,34.8384463],[-83.8361704,34.8383454],[-83.8339433,34.8382698],[-83.831555,34.8383833],[-83.8295276,34.8384778],[-83.8280224,34.8384274],[-83.8262254,34.83844],[-83.8243055,34.8380051],[-83.8230461,34.8373874],[-83.821203,34.8363788],[-83.819022,34.8352821],[-83.8173018,34.8346328],[-83.8158581,34.8339268],[-83.814829,34.8338764],[-83.813846,34.8342294],[-83.8121028,34.8351686],[-83.8111736,34.835509],[-83.8105208,34.8357233],[-83.8096607,34.8368138],[-83.8087469,34.8383706],[-83.8081478,34.8395997],[-83.8079635,34.841207],[-83.8077178,34.8422217],[-83.807449,34.8433058],[-83.807042,34.8436399],[-83.8063355,34.8442386],[-83.8059285,34.8450012],[-83.8054139,34.8453857],[-83.8043618,34.8458647],[-83.804431,34.8465706],[-83.8047612,34.8477995],[-83.8055445,34.8487197],[-83.8065275,34.849331],[-83.8067886,34.849936],[-83.8070727,34.8505095],[-83.8075335,34.8509948],[-83.8080557,34.8513603],[-83.8086163,34.851625],[-83.8089696,34.8521228],[-83.8090617,34.8530681],[-83.8089696,34.8540071],[-83.8086393,34.8546247],[-83.8084627,34.8552864],[-83.8085779,34.8559922],[-83.809008,34.8568492],[-83.8091078,34.8577567],[-83.8091462,34.8585507],[-83.8091452,34.8589926],[-83.8091769,34.859102],[-83.8092412,34.8594541],[-83.8092652,34.8596582],[-83.8093218,34.8598952],[-83.8093046,34.8600528],[-83.8091846,34.860089],[-83.8092249,34.8604261],[-83.8092133,34.8609383],[-83.8092133,34.8611189],[-83.8092133,34.8617055],[-83.8088825,34.8627546],[-83.808626,34.863702],[-83.8089004,34.8641652],[-83.8093535,34.8647228],[-83.8098565,34.8652836],[-83.810156,34.8656617],[-83.8107704,34.8656743],[-83.8116113,34.8655514],[-83.8133469,34.8651985],[-83.8146524,34.8647197],[-83.8147906,34.8693319],[-83.8148674,34.874889],[-83.8149442,34.8785147],[-83.8126442,34.878417],[-83.8116843,34.8784548],[-83.8106629,34.8784643],[-83.8065236,34.8784328],[-83.8065198,34.8764262],[-83.8063739,34.8706803],[-83.8061742,34.8706172],[-83.8057518,34.8703841],[-83.8042774,34.8691429],[-83.8032714,34.8684372],[-83.8015204,34.8674543],[-83.7982951,34.8666478],[-83.7927658,34.8661437],[-83.7881274,34.8661185],[-83.7833046,34.8668242],[-83.7821681,34.8663705],[-83.7813694,34.86569],[-83.7802943,34.8651607],[-83.7788505,34.8642786],[-83.777929,34.8640518],[-83.775748,34.864329],[-83.7731984,34.8631192],[-83.771939,34.8627159],[-83.7718775,34.8632704],[-83.7712324,34.863346],[-83.7693894,34.8637241],[-83.7663483,34.8638501],[-83.7644745,34.8650095],[-83.7642716,34.8702829],[-83.7635607,34.876937],[-83.763567,34.8807367],[-83.7638426,34.8808361],[-83.7639373,34.8823233],[-83.7639091,34.8833415],[-83.7639525,34.8837425],[-83.7715085,34.8837461],[-83.7744387,34.8837475],[-83.7791614,34.8839647],[-83.7807973,34.8859314],[-83.7807652,34.8896476],[-83.780883,34.8959591],[-83.7810041,34.8986767],[-83.7810498,34.8998045],[-83.7810161,34.9035251],[-83.7809287,34.9075112],[-83.7816535,34.9072283],[-83.782314,34.9070646],[-83.7835657,34.9069701],[-83.7851784,34.9068189],[-83.7871137,34.9067434],[-83.7884345,34.9070583],[-83.7896095,34.9069386],[-83.7909534,34.9070583],[-83.7924663,34.9069575],[-83.7948085,34.9072283],[-83.7953,34.9074172],[-83.7955611,34.9080344],[-83.7956763,34.9087083],[-83.7950466,34.9095522],[-83.794678,34.9107739],[-83.7949237,34.9114414],[-83.7957224,34.9122475],[-83.7960756,34.9130788],[-83.7964289,34.9141241],[-83.7966055,34.9147538],[-83.7964443,34.9155284],[-83.7965057,34.91607],[-83.7966286,34.9170397],[-83.7965441,34.9181354],[-83.7962369,34.9189225],[-83.7958299,34.9195711],[-83.7954075,34.9201315],[-83.7956533,34.9206604],[-83.7961601,34.9211768],[-83.796859,34.9220268],[-83.7977267,34.922921],[-83.798272,34.9235821],[-83.7985945,34.9244132],[-83.7984179,34.9254333],[-83.7979571,34.9269444],[-83.7976807,34.9278511],[-83.797289,34.9287073],[-83.7970125,34.9297021],[-83.7969281,34.9307662],[-83.7973121,34.9312195],[-83.7987944,34.9314289],[-83.8032715,34.9315223],[-83.8037452,34.9315322],[-83.8037475,34.9312572],[-83.803448,34.9306088],[-83.8037321,34.9299792],[-83.8044233,34.9296014],[-83.8053909,34.928997],[-83.8064891,34.9284996],[-83.8071956,34.9281974],[-83.8079482,34.9274733],[-83.808624,34.9267933],[-83.8094764,34.9256222],[-83.8102981,34.9249925],[-83.8113886,34.9242055],[-83.81284,34.9232484],[-83.8143222,34.9226439],[-83.8148668,34.9224684],[-83.8148626,34.9206812],[-83.8187526,34.9207204],[-83.8241367,34.9207818],[-83.8241301,34.9214321],[-83.8308525,34.9214602],[-83.8336517,34.921504],[-83.8385999,34.9214242],[-83.8412855,34.9213688],[-83.8412328,34.9187327],[-83.8412312,34.9161458],[-83.84125,34.9147006],[-83.8410364,34.9099524],[-83.841005,34.9084076],[-83.8409636,34.9063755],[-83.8337058,34.9062176],[-83.8332994,34.8990956],[-83.8329143,34.8956206],[-83.8327453,34.895249],[-83.8320849,34.8952868],[-83.8317624,34.8950789],[-83.8317777,34.8947514],[-83.8316318,34.8943798],[-83.8314321,34.8936365],[-83.8306565,34.8934034],[-83.8297734,34.8930381],[-83.8292742,34.8931326],[-83.8285984,34.8933341],[-83.8277767,34.893309],[-83.8267323,34.8929436],[-83.8258491,34.8927106],[-83.8229232,34.8926224],[-83.822954,34.8894476],[-83.8229847,34.8846727],[-83.8327761,34.8846727],[-83.8327377,34.8875642],[-83.8327146,34.891098],[-83.8328145,34.8929373],[-83.8328221,34.8945624],[-83.8404172,34.8947703],[-83.8404709,34.8945624],[-83.8407397,34.8942286],[-83.8412235,34.8940585],[-83.841308,34.8931515],[-83.8437578,34.8931641],[-83.8442723,34.8930696],[-83.8482964,34.8930696],[-83.8482196,34.8847735],[-83.852474,34.8846916],[-83.8561218,34.8846286],[-83.8659691,34.8848436],[-83.8682324,34.8877595],[-83.8716958,34.8877406],[-83.8714117,34.8872744],[-83.8711276,34.886613],[-83.8707973,34.8860397],[-83.870567,34.8850822],[-83.8703289,34.8837593],[-83.8692845,34.8834443],[-83.8680097,34.8829403],[-83.8661589,34.8819009],[-83.8657673,34.8814662],[-83.8651299,34.880811],[-83.8637629,34.8803889],[-83.8640394,34.879866],[-83.8642774,34.8790218],[-83.8644464,34.8782595],[-83.8653756,34.8765963],[-83.8661666,34.8751725],[-83.8683015,34.8729295],[-83.8693229,34.8713733],[-83.8694304,34.8708945],[-83.8697324,34.8702822],[-83.8699063,34.8699296],[-83.8703257,34.869393],[-83.8708079,34.8689986],[-83.8716493,34.8683104],[-83.8722389,34.8676904],[-83.8727646,34.8666915],[-83.8731455,34.8663975]],[[-83.8327294,34.9102892],[-83.8325889,34.9122409],[-83.8325325,34.9145079],[-83.8265641,34.9143718],[-83.8241091,34.9144002],[-83.8239847,34.9126679],[-83.824736,34.9122898],[-83.8259601,34.9113576],[-83.8269265,34.9109282],[-83.8283184,34.9105753],[-83.8289579,34.9105469],[-83.8303307,34.9106074],[-83.832166,34.9104127],[-83.8327294,34.9102892]]]}},{"type":"Feature","properties":{"name":"Tray Mountain Wilderness","kind":"wilderness","no_panning":true,"source":"Nominatim/OSM (relation 8258430)","display_name":"Tray Mountain Wilderness, Towns County, Georgia, United States"},"geometry":{"type":"Polygon","coordinates":[[[-83.6910477,34.7993034],[-83.6910474,34.7992768],[-83.690232,34.7988187],[-83.6895883,34.7982901],[-83.6879897,34.7980875],[-83.6873675,34.7979113],[-83.6866915,34.7981756],[-83.6859942,34.7981844],[-83.6856294,34.7981139],[-83.6854577,34.7974619],[-83.6854577,34.7971448],[-83.6852002,34.7968276],[-83.6853933,34.796343],[-83.6857581,34.7957527],[-83.6857903,34.7953475],[-83.686198,34.7947043],[-83.6866701,34.7933563],[-83.686831,34.7916293],[-83.6869276,34.7904223],[-83.6867881,34.7901491],[-83.6854899,34.7905544],[-83.6845029,34.7906337],[-83.6840201,34.7904223],[-83.6836231,34.7897526],[-83.6833418,34.7892154],[-83.6831617,34.7888715],[-83.6831617,34.7880609],[-83.6840522,34.7867568],[-83.6844385,34.7851355],[-83.6850286,34.7842896],[-83.6852002,34.7833732],[-83.6856508,34.7813552],[-83.6860371,34.7800599],[-83.6861926,34.7793912],[-83.6864448,34.7783062],[-83.6865735,34.7776982],[-83.6872602,34.776438],[-83.6872387,34.775169],[-83.6871958,34.774605],[-83.6879897,34.7736444],[-83.687861,34.7732214],[-83.6873353,34.7731333],[-83.6860263,34.7737061],[-83.6855972,34.7740762],[-83.6854255,34.7750897],[-83.6846316,34.7754334],[-83.6833763,34.7759269],[-83.6827326,34.7764997],[-83.6825395,34.7775924],[-83.6825395,34.7779978],[-83.6821854,34.7792668],[-83.681488,34.7796104],[-83.6809945,34.7797691],[-83.6808014,34.7804652],[-83.6807799,34.7814962],[-83.6813593,34.7821395],[-83.6813164,34.7829326],[-83.6805654,34.7836111],[-83.680222,34.7839459],[-83.6798895,34.7838314],[-83.6795247,34.7832762],[-83.6788917,34.7829414],[-83.6783552,34.7826418],[-83.6777437,34.7825625],[-83.6771214,34.7826858],[-83.6748684,34.7830647],[-83.673774,34.783144],[-83.6731947,34.7826946],[-83.6723578,34.7825713],[-83.6717677,34.7829238],[-83.6712849,34.7832674],[-83.6711025,34.7837697],[-83.6706197,34.7839459],[-83.6699653,34.7840517],[-83.6696005,34.7842103],[-83.6692035,34.7841221],[-83.6692035,34.7832234],[-83.6688495,34.7828092],[-83.668356,34.7823774],[-83.6681414,34.7821659],[-83.6682165,34.7814874],[-83.6680985,34.7812936],[-83.667723,34.7812671],[-83.6674011,34.7812407],[-83.6670899,34.7812231],[-83.6665321,34.7805798],[-83.6661136,34.7804564],[-83.6657167,34.7804476],[-83.6654484,34.7804917],[-83.6652768,34.7800863],[-83.6652017,34.7798924],[-83.6649335,34.7796898],[-83.6651051,34.7794342],[-83.6655879,34.7790641],[-83.6657059,34.7786675],[-83.6655665,34.7782446],[-83.6658239,34.7777951],[-83.6665106,34.7771166],[-83.666811,34.7764997],[-83.6666179,34.7761296],[-83.6662209,34.7756361],[-83.6661673,34.775451],[-83.666575,34.7750897],[-83.6672402,34.7748429],[-83.6675727,34.7743494],[-83.6677551,34.7741379],[-83.6684847,34.7737325],[-83.6685705,34.7732743],[-83.6684096,34.7729658],[-83.667959,34.7728072],[-83.6677337,34.7724106],[-83.6674869,34.7723665],[-83.6674655,34.7721022],[-83.6677659,34.771591],[-83.6682809,34.7709476],[-83.6687851,34.7705599],[-83.6686993,34.7702338],[-83.6683667,34.7697226],[-83.6679483,34.769282],[-83.6676693,34.7688413],[-83.6672616,34.7682155],[-83.6670685,34.767863],[-83.6668325,34.7673518],[-83.6668861,34.7668759],[-83.6673153,34.7661532],[-83.6671758,34.7658183],[-83.6667252,34.7655274],[-83.6662424,34.7653071],[-83.6662746,34.7648752],[-83.6663175,34.7641701],[-83.6667681,34.7634209],[-83.6668325,34.7628568],[-83.6670363,34.7622222],[-83.6672831,34.7617551],[-83.6673153,34.7614554],[-83.667208,34.7609795],[-83.6667788,34.7612262],[-83.6663067,34.7612351],[-83.6657703,34.7606621],[-83.6652553,34.7600892],[-83.6646116,34.7594898],[-83.6638083,34.7586879],[-83.6623776,34.7586866],[-83.6623433,34.7636265],[-83.656437,34.7636374],[-83.6556457,34.7634444],[-83.6502548,34.7628169],[-83.649233,34.762309],[-83.648996,34.762579],[-83.648509,34.763133],[-83.648107,34.763615],[-83.647937,34.763808],[-83.647802,34.763953],[-83.647583,34.764125],[-83.64733,34.764259],[-83.646965,34.764391],[-83.646156,34.764554],[-83.644632,34.764799],[-83.644093,34.764855],[-83.643801,34.76491],[-83.643567,34.764968],[-83.643366,34.765048],[-83.642982,34.765273],[-83.64279,34.765467],[-83.642544,34.76579],[-83.6422772,34.766283],[-83.641962,34.766696],[-83.641034,34.768329],[-83.640628,34.769014],[-83.640344,34.769364],[-83.64011,34.769568],[-83.639743,34.76981],[-83.6391961,34.7701805],[-83.639061,34.770272],[-83.6379,34.771145],[-83.6372,34.771666],[-83.63698,34.771824],[-83.6367514,34.7721048],[-83.6368346,34.772437],[-83.6370385,34.7728953],[-83.6375427,34.7732919],[-83.6377466,34.7737502],[-83.6371243,34.7740586],[-83.6358798,34.7744376],[-83.6351609,34.7749663],[-83.6336267,34.7755391],[-83.6330311,34.775981],[-83.6335006,34.7761697],[-83.6340917,34.7759884],[-83.634752,34.7758377],[-83.6354272,34.7758452],[-83.6391318,34.7780015],[-83.6412233,34.7775526],[-83.644472,34.777519],[-83.6449366,34.7827537],[-83.6441705,34.7823833],[-83.6422685,34.7818065],[-83.641727,34.7817606],[-83.6403397,34.7817656],[-83.6395181,34.7817403],[-83.6389345,34.7818757],[-83.637906,34.7822149],[-83.6369455,34.7823585],[-83.6362987,34.782366],[-83.6351567,34.7821943],[-83.6338437,34.7820656],[-83.6332405,34.7831617],[-83.6322534,34.7843601],[-83.6318135,34.7847566],[-83.6305046,34.7860871],[-83.630172,34.7882107],[-83.630333,34.7911888],[-83.6307943,34.7917263],[-83.6306119,34.792484],[-83.6296356,34.7932946],[-83.6287236,34.7945986],[-83.6283159,34.795973],[-83.6278331,34.7969333],[-83.6280155,34.7977351],[-83.6286807,34.7984663],[-83.6294953,34.7987134],[-83.6303338,34.7987768],[-83.6311874,34.7985246],[-83.632035,34.7986394],[-83.6332067,34.7983273],[-83.6339778,34.79766],[-83.6356467,34.7967267],[-83.6370015,34.7970332],[-83.6382782,34.7975002],[-83.6398866,34.7984114],[-83.6411463,34.7996082],[-83.6427733,34.8013032],[-83.6434692,34.8028256],[-83.6440838,34.803735],[-83.6450769,34.8048988],[-83.6467081,34.8065913],[-83.6471712,34.8087473],[-83.6471878,34.8198364],[-83.6304753,34.8192407],[-83.6303934,34.8253333],[-83.6291957,34.8260462],[-83.6284876,34.8269622],[-83.6281765,34.8279133],[-83.6272109,34.8303528],[-83.6280048,34.8317883],[-83.6291082,34.8322301],[-83.629545,34.832319],[-83.629945,34.832461],[-83.630378,34.832491],[-83.630699,34.832437],[-83.631163,34.832227],[-83.631362,34.832153],[-83.631577,34.832119],[-83.631901,34.832147],[-83.632141,34.83222],[-83.632448,34.832359],[-83.6328064,34.8327591],[-83.633557,34.833863],[-83.633832,34.834352],[-83.634142,34.834666],[-83.634505,34.834866],[-83.634782,34.835142],[-83.635056,34.83556],[-83.635345,34.835829],[-83.635691,34.836067],[-83.635874,34.836289],[-83.635931,34.836462],[-83.6359351,34.836585],[-83.635908,34.83673],[-83.635821,34.836895],[-83.635711,34.837014],[-83.634537,34.838091],[-83.634216,34.838477],[-83.633826,34.838791],[-83.633488,34.839001],[-83.633357,34.839145],[-83.633217,34.839468],[-83.633109,34.839624],[-83.632722,34.839955],[-83.632638,34.840011],[-83.632531,34.840025],[-83.63243,34.839994],[-83.63235,34.839897],[-83.632335,34.839749],[-83.632315,34.839661],[-83.632252,34.839588],[-83.632089,34.839532],[-83.631599,34.839482],[-83.631347,34.839482],[-83.631272,34.83963],[-83.631313,34.839861],[-83.631263,34.840127],[-83.6306012,34.8404095],[-83.6307514,34.8426813],[-83.630333,34.8440814],[-83.6282408,34.8468902],[-83.6277795,34.8483958],[-83.6280584,34.8498838],[-83.6298394,34.8520762],[-83.6307407,34.852895],[-83.6339486,34.8548143],[-83.6348498,34.8551489],[-83.636148,34.8567512],[-83.638444,34.8579397],[-83.6393774,34.8584767],[-83.6411369,34.859991],[-83.6430144,34.8607833],[-83.6475849,34.8608097],[-83.6488831,34.8614347],[-83.6498487,34.8632306],[-83.65134,34.8657571],[-83.6527562,34.8665934],[-83.6538935,34.8657395],[-83.654505,34.864375],[-83.6555672,34.8634331],[-83.6559048,34.8635603],[-83.6572945,34.8639349],[-83.6584747,34.8654138],[-83.6597729,34.8662148],[-83.6624658,34.866611],[-83.6627391,34.8667374],[-83.663367,34.8669983],[-83.6651909,34.8670335],[-83.666414,34.8665934],[-83.6682594,34.8673768],[-83.6691284,34.8680898],[-83.6704052,34.8680106],[-83.6717248,34.8675177],[-83.6718098,34.8674548],[-83.6719046,34.8673762],[-83.6720595,34.8673392],[-83.6721753,34.8673238],[-83.6733556,34.8671831],[-83.6745036,34.8675529],[-83.6758876,34.8669807],[-83.676939,34.8656338],[-83.6781728,34.8650528],[-83.6800718,34.8641373],[-83.6825609,34.8630369],[-83.6815524,34.8611442],[-83.6809731,34.8596652],[-83.6792886,34.8575259],[-83.6774084,34.8557158],[-83.6752117,34.8536081],[-83.6715531,34.8506587],[-83.6672294,34.846177],[-83.6665642,34.8435266],[-83.6668217,34.8409819],[-83.6668968,34.8401277],[-83.6752331,34.8315153],[-83.6743523,34.8306287],[-83.6723256,34.8296131],[-83.6709094,34.8288997],[-83.670094,34.8279221],[-83.6687958,34.8239237],[-83.6678195,34.822444],[-83.6666072,34.8193261],[-83.6677337,34.8184189],[-83.6687422,34.8190618],[-83.6693537,34.8200395],[-83.6704159,34.8209996],[-83.6717892,34.820797],[-83.6737204,34.8171945],[-83.674804,34.8170007],[-83.6764777,34.8172562],[-83.6774433,34.8137417],[-83.6788488,34.8119976],[-83.6795998,34.8103856],[-83.6805225,34.8094078],[-83.6849105,34.8086326],[-83.6866164,34.8091259],[-83.6869276,34.8111255],[-83.686831,34.8120504],[-83.6895132,34.8125877],[-83.6904788,34.8080159],[-83.6908972,34.8069765],[-83.6900389,34.8057696],[-83.688215,34.8041663],[-83.687861,34.8026334],[-83.6882687,34.8015762],[-83.6910477,34.7993034]]]}},{"type":"Feature","properties":{"name":"Vogel State Park","kind":"state_park","no_panning":true,"source":"Nominatim/OSM (way 300879709)","display_name":"Vogel State Park, 405, Blairsville, Union County, Georgia, 30512, United States"},"geometry":{"type":"Polygon","coordinates":[[[-83.9343915,34.7626178],[-83.9313584,34.7607219],[-83.929856,34.7597826],[-83.9295995,34.7568706],[-83.9335085,34.7554704],[-83.9334316,34.7538986],[-83.933256,34.753996],[-83.93301,34.754063],[-83.932584,34.754265],[-83.932164,34.754293],[-83.931885,34.754408],[-83.931619,34.754369],[-83.931352,34.75438],[-83.931266,34.754403],[-83.930893,34.754524],[-83.9303003,34.7548278],[-83.9298834,34.7551138],[-83.9292603,34.7554245],[-83.9291529,34.7544783],[-83.9264929,34.7546477],[-83.9262995,34.758842],[-83.9257452,34.7588879],[-83.9254487,34.7615957],[-83.9224277,34.7632621],[-83.9222128,34.7636963],[-83.9217917,34.7643529],[-83.9212073,34.7652884],[-83.9207861,34.7658921],[-83.9203994,34.7663016],[-83.9201071,34.766524],[-83.919643,34.7667111],[-83.9193293,34.7667781],[-83.918934,34.7668876],[-83.9185988,34.7669935],[-83.9183238,34.7670958],[-83.9180874,34.7673218],[-83.9178726,34.7675159],[-83.9175975,34.7678301],[-83.9172495,34.7683737],[-83.9169401,34.7686173],[-83.9167682,34.7687267],[-83.9164459,34.7688538],[-83.9163427,34.7689562],[-83.916158,34.7691821],[-83.9160505,34.7693233],[-83.9160033,34.7696234],[-83.9159646,34.7700081],[-83.9159179,34.770209],[-83.9158743,34.7703964],[-83.9158271,34.7705976],[-83.9176072,34.7704538],[-83.9179499,34.7711589],[-83.9181734,34.7720837],[-83.9185163,34.7718261],[-83.9225337,34.7686844],[-83.9226823,34.7686933],[-83.9228185,34.7686971],[-83.922898,34.7687113],[-83.9229976,34.768742],[-83.9233169,34.7688874],[-83.9234611,34.7689375],[-83.9235552,34.7689341],[-83.9236306,34.7689043],[-83.9237507,34.768778],[-83.923837,34.7686401],[-83.9239495,34.7684794],[-83.9240698,34.7682996],[-83.9241698,34.768104],[-83.924185,34.767954],[-83.9241528,34.7677535],[-83.9241353,34.7675453],[-83.9241631,34.7673977],[-83.9242292,34.7672743],[-83.9243839,34.7671139],[-83.9244886,34.7670279],[-83.9246335,34.7669375],[-83.9247508,34.7668768],[-83.9249445,34.7667929],[-83.9251557,34.766732],[-83.9253482,34.7667081],[-83.9254897,34.7667382],[-83.9257134,34.7668127],[-83.9258474,34.7668633],[-83.9259229,34.7669101],[-83.9259984,34.7669658],[-83.9261699,34.7671634],[-83.9262548,34.7672058],[-83.9263615,34.7672127],[-83.9264744,34.7671784],[-83.926783,34.767003],[-83.9273009,34.7667351],[-83.9276304,34.7665855],[-83.9278774,34.7664757],[-83.9279895,34.7664152],[-83.9343915,34.7626178]]]}},{"type":"Feature","properties":{"name":"Smithgall Woods State Park","kind":"state_park","no_panning":true,"source":"Nominatim/OSM (way 371439484)","display_name":"Smithgall Woods State Park, Helen, White County, Georgia, United States"},"geometry":{"type":"Polygon","coordinates":[[[-83.7815754,34.6596683],[-83.7772493,34.6596406],[-83.7730225,34.659609],[-83.7709679,34.6595845],[-83.7663791,34.6594998],[-83.7608397,34.6595273],[-83.7608443,34.6606287],[-83.7608858,34.6629968],[-83.760687,34.6630012],[-83.7606494,34.6637261],[-83.7597626,34.6637085],[-83.7591392,34.6630808],[-83.759064,34.6632576],[-83.7584137,34.6637217],[-83.7577688,34.6635759],[-83.757656,34.6637173],[-83.7568176,34.6630145],[-83.756377,34.6626918],[-83.7557406,34.662569],[-83.7544572,34.6612566],[-83.7553493,34.6605317],[-83.7559082,34.6591967],[-83.7563274,34.6590287],[-83.7511897,34.6590199],[-83.751097,34.6609041],[-83.7457794,34.6609362],[-83.7458008,34.6595757],[-83.7445138,34.6595757],[-83.7448697,34.659011],[-83.7424274,34.65899],[-83.7424822,34.6591294],[-83.7422135,34.6593669],[-83.7419502,34.6600102],[-83.7421945,34.6605663],[-83.7424452,34.6611091],[-83.7427068,34.6614411],[-83.7427766,34.6616169],[-83.7425589,34.6618546],[-83.7426089,34.6621691],[-83.74257,34.6625905],[-83.7426475,34.6628535],[-83.7421046,34.6632314],[-83.7415955,34.6637928],[-83.7418791,34.6640569],[-83.7419772,34.6646005],[-83.7415888,34.66512],[-83.7408607,34.6653498],[-83.7406913,34.6659246],[-83.7407176,34.6679599],[-83.7353898,34.6679046],[-83.730091,34.6678427],[-83.7300439,34.6661961],[-83.7311482,34.665848],[-83.7317436,34.6658128],[-83.7318537,34.6657185],[-83.7320035,34.6657262],[-83.7320456,34.6656234],[-83.7321827,34.665046],[-83.7323219,34.6648755],[-83.7323715,34.6647641],[-83.7328922,34.6643789],[-83.7331234,34.6640535],[-83.733199,34.6638552],[-83.7332218,34.6637316],[-83.7332419,34.6635198],[-83.7333747,34.6632992],[-83.733418,34.6631029],[-83.7332982,34.6628448],[-83.7330961,34.6624841],[-83.73259,34.6623072],[-83.7324908,34.6620884],[-83.7317795,34.6620281],[-83.7315631,34.6622591],[-83.7315671,34.6624988],[-83.730432,34.6631867],[-83.7301968,34.6631868],[-83.7299536,34.6626804],[-83.7287072,34.6631368],[-83.7284336,34.6634181],[-83.7274076,34.6633181],[-83.7271353,34.6634479],[-83.7264849,34.6634714],[-83.726181,34.6633643],[-83.7260628,34.6632283],[-83.7260307,34.6631118],[-83.7252313,34.6630956],[-83.7249676,34.6619479],[-83.7259797,34.6619174],[-83.725945,34.6607842],[-83.7259117,34.6596412],[-83.7224774,34.6616449],[-83.7212699,34.6623307],[-83.7200865,34.6630169],[-83.7231663,34.6630581],[-83.7237331,34.6658629],[-83.7234021,34.6658635],[-83.7227018,34.6664925],[-83.7228497,34.6665223],[-83.7229623,34.6665665],[-83.7231984,34.6666602],[-83.7233513,34.6667473],[-83.7235798,34.6669065],[-83.7239749,34.6671864],[-83.7242361,34.6674283],[-83.7245288,34.6677213],[-83.724687,34.6679364],[-83.7248077,34.6681625],[-83.7248439,34.6682706],[-83.7249297,34.66836],[-83.7251343,34.6684821],[-83.7253744,34.6685413],[-83.7256352,34.6685706],[-83.7259289,34.6685783],[-83.7264549,34.6685961],[-83.726518,34.6688707],[-83.7281542,34.6693252],[-83.7299934,34.669198],[-83.7298338,34.6723306],[-83.7298468,34.674029],[-83.7298649,34.6761721],[-83.7250592,34.676182],[-83.7197452,34.6762136],[-83.7190371,34.6773529],[-83.7189486,34.6815882],[-83.7189343,34.6832117],[-83.7188445,34.6871071],[-83.7187778,34.6902158],[-83.7186857,34.6943997],[-83.7212984,34.6943848],[-83.7213807,34.6898015],[-83.7300327,34.6898272],[-83.7300676,34.6945743],[-83.7314236,34.69581],[-83.7322145,34.6968407],[-83.7331749,34.6970479],[-83.734512,34.6971484],[-83.7386355,34.6971858],[-83.7386327,34.697448],[-83.7388054,34.6975485],[-83.7391379,34.6973563],[-83.7392858,34.6976243],[-83.7395136,34.6977872],[-83.739666,34.6978463],[-83.7395623,34.6981544],[-83.7392185,34.698311],[-83.7386972,34.6986138],[-83.7382878,34.698859],[-83.7378776,34.699101],[-83.7380089,34.6992416],[-83.7381802,34.6993805],[-83.7384614,34.6994752],[-83.7385185,34.6996936],[-83.7385829,34.6997686],[-83.7386258,34.6999307],[-83.7387156,34.700074],[-83.7387438,34.7001829],[-83.738902,34.7004379],[-83.7389812,34.7006672],[-83.7391147,34.7008525],[-83.7393272,34.7009307],[-83.7394935,34.7009484],[-83.7398148,34.7009937],[-83.739859,34.7010479],[-83.7397939,34.7011303],[-83.7397018,34.7012103],[-83.7397327,34.7013098],[-83.739877,34.701364],[-83.7400041,34.7014268],[-83.7402782,34.7014555],[-83.7403884,34.7014091],[-83.7404206,34.7023017],[-83.7403263,34.7023299],[-83.7402338,34.7023861],[-83.7401263,34.702475],[-83.7399749,34.7026937],[-83.739902,34.702856],[-83.739891,34.7029377],[-83.7398851,34.7030421],[-83.739928,34.7031557],[-83.7400039,34.7033043],[-83.7401076,34.7034238],[-83.7402512,34.7034886],[-83.740313,34.7037341],[-83.740489,34.7038346],[-83.7405979,34.7038974],[-83.7406602,34.7039484],[-83.7407282,34.7039837],[-83.740907,34.7039958],[-83.7411593,34.703996],[-83.7413998,34.7040334],[-83.7416272,34.7041193],[-83.7419174,34.7042743],[-83.7418619,34.7043155],[-83.7415963,34.7043376],[-83.7413844,34.7043861],[-83.7411645,34.7043927],[-83.7409177,34.7044708],[-83.7420355,34.7045106],[-83.7432769,34.7045614],[-83.7459989,34.7046785],[-83.7485973,34.7047757],[-83.7499193,34.7048265],[-83.7500937,34.7048468],[-83.7503869,34.70463],[-83.7513327,34.7039517],[-83.7523485,34.7031521],[-83.7534474,34.7023413],[-83.7548286,34.7012677],[-83.7557207,34.7005873],[-83.7551483,34.7005983],[-83.7546109,34.7004039],[-83.7542562,34.699465],[-83.7544712,34.699264],[-83.7545384,34.6992419],[-83.754713,34.6993723],[-83.7549387,34.6991911],[-83.7552075,34.6991293],[-83.7559222,34.6992154],[-83.7562984,34.6990011],[-83.756645,34.698736],[-83.7569917,34.6987228],[-83.7572926,34.6988376],[-83.7574834,34.6987139],[-83.7576795,34.6984731],[-83.7579509,34.6983472],[-83.7575452,34.6980998],[-83.7573463,34.6976867],[-83.757032,34.6975828],[-83.7567552,34.6974127],[-83.7565752,34.6970637],[-83.7559036,34.6972957],[-83.7542374,34.6978789],[-83.7534958,34.6981351],[-83.7535818,34.699127],[-83.7530766,34.6996528],[-83.7527166,34.6995247],[-83.7519964,34.6995689],[-83.7518701,34.699465],[-83.7517546,34.6993435],[-83.7514563,34.6989901],[-83.7514671,34.6988001],[-83.7504675,34.6984069],[-83.7501316,34.6972426],[-83.7496326,34.6954965],[-83.7550936,34.6956001],[-83.7611343,34.6957147],[-83.7653873,34.6956685],[-83.7654612,34.6955147],[-83.7655553,34.6950429],[-83.7657498,34.6949789],[-83.765862,34.694837],[-83.7663149,34.6945264],[-83.7669493,34.6937178],[-83.767095,34.69366],[-83.7671041,34.6937494],[-83.7670813,34.6938453],[-83.767029,34.6939247],[-83.7670221,34.6940584],[-83.767367,34.6939126],[-83.7675185,34.6938233],[-83.7677049,34.693681],[-83.767944,34.6936214],[-83.7682171,34.6937203],[-83.7683517,34.6940765],[-83.7684943,34.6941474],[-83.7686874,34.694507],[-83.7687465,34.6949543],[-83.7689065,34.6951718],[-83.7691372,34.6953482],[-83.7693545,34.6954847],[-83.7695036,34.6958186],[-83.7696541,34.6960262],[-83.7697024,34.6958064],[-83.7699497,34.6955844],[-83.7700666,34.6953679],[-83.7703026,34.6942026],[-83.7703576,34.6940548],[-83.7703952,34.6938078],[-83.7704271,34.6934552],[-83.7704119,34.6932982],[-83.7703569,34.6929854],[-83.7703067,34.6928187],[-83.7701365,34.6925451],[-83.7700478,34.6923556],[-83.7698413,34.6920744],[-83.7696443,34.6917974],[-83.7693081,34.6913794],[-83.7688292,34.6907295],[-83.76851,34.6901983],[-83.7682896,34.6896984],[-83.768244,34.689236],[-83.76832,34.6888548],[-83.7691332,34.6878486],[-83.7702657,34.6864113],[-83.7703565,34.6862648],[-83.7707977,34.6855738],[-83.7709421,34.6851114],[-83.7709649,34.6847989],[-83.7707369,34.6848426],[-83.7704253,34.6848364],[-83.7703417,34.6830615],[-83.7710637,34.6830678],[-83.7711558,34.6826603],[-83.7710578,34.6827631],[-83.7707555,34.6826449],[-83.7721404,34.6810544],[-83.7727484,34.6803044],[-83.772604,34.6802544],[-83.7715552,34.6783857],[-83.7715704,34.6779919],[-83.7715098,34.6779343],[-83.7714716,34.6778981],[-83.7714707,34.6777633],[-83.771464,34.6767981],[-83.7720948,34.6759106],[-83.772072,34.6747793],[-83.7714792,34.6746668],[-83.7714864,34.6692589],[-83.7720185,34.6696546],[-83.7726506,34.6701216],[-83.7729675,34.6703793],[-83.773308,34.6706327],[-83.7734797,34.6707628],[-83.7736393,34.6708634],[-83.7738686,34.6709481],[-83.7740966,34.6710055],[-83.7745043,34.6710599],[-83.77514,34.6711092],[-83.7755257,34.6711904],[-83.775891,34.6713231],[-83.776165,34.6714776],[-83.7772325,34.6721532],[-83.7778731,34.6717632],[-83.7775851,34.671388],[-83.7775486,34.6706625],[-83.777229,34.6705328],[-83.7774601,34.6702379],[-83.7778983,34.6704679],[-83.7783845,34.6712168],[-83.7800263,34.6687374],[-83.7810473,34.6671838],[-83.781394,34.6668786],[-83.7815754,34.6596683]]]}}]}